companyName,companyType,industry,website,city,state,country,parentCompanyName
DuPont,ADVERTISER,Chemicals & Materials,https://www.dupont.com,Wilmington,DE,US,
Ebro Foods,ADVERTISER,Food & Beverage,https://www.ebrofoods.com,Madrid,,Spain,
Chamberlain Group,ADVERTISER,Consumer Products,https://www.chamberlaingroup.com,Oak Brook,IL,US,
Goldbelly,ADVERTISER,Food & Beverage,https://www.goldbelly.com,New York,NY,US,
MyFitnessPal,ADVERTISER,Health & Wellness,https://www.myfitnesspal.com,Austin,TX,US,
Birkenstock,ADVERTISER,Retail & Footwear,https://www.birkenstock.com,Linz am Rhein,,Germany,
California Department of Public Health,ADVERTISER,Government & Public Sector,https://www.cdph.ca.gov,Sacramento,CA,US,
Golden State Warriors,ADVERTISER,Sports & Entertainment,https://www.nba.com/warriors,San Francisco,CA,US,
Allspring Global,ADVERTISER,Financial Services,https://www.allspringglobal.com,San Francisco,CA,US,
Northern Trust,ADVERTISER,Financial Services,https://www.northerntrust.com,Chicago,IL,US,
PIMCO,ADVERTISER,Financial Services,https://www.pimco.com,Newport Beach,CA,US,
State Street,ADVERTISER,Financial Services,https://www.statestreet.com,Boston,MA,US,
Ace Hardware,ADVERTISER,Retail & Home Improvement,https://www.acehardware.com,Oak Brook,IL,US,
Apple,ADVERTISER,Technology,https://www.apple.com,Cupertino,CA,US,
Nike,ADVERTISER,Retail & Footwear,https://www.nike.com,Beaverton,OR,US,
Nordstrom,ADVERTISER,Retail & Fashion,https://www.nordstrom.com,Seattle,WA,US,
Amazon,ADVERTISER,Technology & Retail,https://www.amazon.com,Seattle,WA,US,
Bank of America,ADVERTISER,Financial Services,https://www.bankofamerica.com,Charlotte,NC,US,
Coca-Cola,ADVERTISER,Food & Beverage,https://www.coca-cola.com,Atlanta,GA,US,
Disney,ADVERTISER,Entertainment & Media,https://www.disney.com,Burbank,CA,US,
Ford,ADVERTISER,Automotive,https://www.ford.com,Dearborn,MI,US,
Google,ADVERTISER,Technology,https://www.google.com,Mountain View,CA,US,
Home Depot,ADVERTISER,Retail & Home Improvement,https://www.homedepot.com,Atlanta,GA,US,
Johnson & Johnson,ADVERTISER,Pharmaceuticals & Healthcare,https://www.jnj.com,New Brunswick,NJ,US,
McDonald's,ADVERTISER,Food & Beverage,https://www.mcdonalds.com,Chicago,IL,US,
Meta,ADVERTISER,Technology,https://www.meta.com,Menlo Park,CA,US,
Microsoft,ADVERTISER,Technology,https://www.microsoft.com,Redmond,WA,US,
Netflix,ADVERTISER,Entertainment & Media,https://www.netflix.com,Los Gatos,CA,US,
PepsiCo,ADVERTISER,Food & Beverage,https://www.pepsico.com,Purchase,NY,US,
Procter & Gamble,ADVERTISER,Consumer Products,https://www.pg.com,Cincinnati,OH,US,
Samsung,ADVERTISER,Technology & Electronics,https://www.samsung.com,Seoul,,South Korea,
Starbucks,ADVERTISER,Food & Beverage,https://www.starbucks.com,Seattle,WA,US,
Target,ADVERTISER,Retail,https://www.target.com,Minneapolis,MN,US,
Tesla,ADVERTISER,Automotive,https://www.tesla.com,Austin,TX,US,
Toyota,ADVERTISER,Automotive,https://www.toyota.com,Toyota City,,Japan,
Verizon,ADVERTISER,Telecommunications,https://www.verizon.com,New York,NY,US,
Walmart,ADVERTISER,Retail,https://www.walmart.com,Bentonville,AR,US,
Adobe,ADVERTISER,Technology,https://www.adobe.com,San Jose,CA,US,
Airbnb,ADVERTISER,Travel & Hospitality,https://www.airbnb.com,San Francisco,CA,US,
American Express,ADVERTISER,Financial Services,https://www.americanexpress.com,New York,NY,US,
AT&T,ADVERTISER,Telecommunications,https://www.att.com,Dallas,TX,US,
BMW,ADVERTISER,Automotive,https://www.bmw.com,Munich,,Germany,
Booking.com,ADVERTISER,Travel & Hospitality,https://www.booking.com,Amsterdam,,Netherlands,
Capital One,ADVERTISER,Financial Services,https://www.capitalone.com,McLean,VA,US,
Chevrolet,ADVERTISER,Automotive,https://www.chevrolet.com,Detroit,MI,US,
Cisco,ADVERTISER,Technology,https://www.cisco.com,San Jose,CA,US,
Costco,ADVERTISER,Retail,https://www.costco.com,Issaquah,WA,US,
CVS Health,ADVERTISER,Healthcare & Pharmacy,https://www.cvshealth.com,Woonsocket,RI,US,
Delta Air Lines,ADVERTISER,Travel & Hospitality,https://www.delta.com,Atlanta,GA,US,
eBay,ADVERTISER,Technology & Retail,https://www.ebay.com,San Jose,CA,US,
FedEx,ADVERTISER,Logistics & Transportation,https://www.fedex.com,Memphis,TN,US,
General Electric,ADVERTISER,Industrial & Technology,https://www.ge.com,Boston,MA,US,
General Motors,ADVERTISER,Automotive,https://www.gm.com,Detroit,MI,US,
Goldman Sachs,ADVERTISER,Financial Services,https://www.goldmansachs.com,New York,NY,US,
HP,ADVERTISER,Technology,https://www.hp.com,Palo Alto,CA,US,
Hyundai,ADVERTISER,Automotive,https://www.hyundai.com,Seoul,,South Korea,
IBM,ADVERTISER,Technology,https://www.ibm.com,Armonk,NY,US,
Intel,ADVERTISER,Technology,https://www.intel.com,Santa Clara,CA,US,
JPMorgan Chase,ADVERTISER,Financial Services,https://www.jpmorganchase.com,New York,NY,US,
Kraft Heinz,ADVERTISER,Food & Beverage,https://www.kraftheinzcompany.com,Chicago,IL,US,
Lowe's,ADVERTISER,Retail & Home Improvement,https://www.lowes.com,Mooresville,NC,US,
Lyft,ADVERTISER,Transportation & Ridesharing,https://www.lyft.com,San Francisco,CA,US,
Marriott,ADVERTISER,Travel & Hospitality,https://www.marriott.com,Bethesda,MD,US,
Mastercard,ADVERTISER,Financial Services,https://www.mastercard.com,Purchase,NY,US,
Merck,ADVERTISER,Pharmaceuticals & Healthcare,https://www.merck.com,Rahway,NJ,US,
Nestlé,ADVERTISER,Food & Beverage,https://www.nestle.com,Vevey,,Switzerland,
Oracle,ADVERTISER,Technology,https://www.oracle.com,Austin,TX,US,
PayPal,ADVERTISER,Financial Services,https://www.paypal.com,San Jose,CA,US,
Pfizer,ADVERTISER,Pharmaceuticals & Healthcare,https://www.pfizer.com,New York,NY,US,
Salesforce,ADVERTISER,Technology,https://www.salesforce.com,San Francisco,CA,US,
Snap,ADVERTISER,Technology & Social Media,https://www.snap.com,Santa Monica,CA,US,
Southwest Airlines,ADVERTISER,Travel & Hospitality,https://www.southwest.com,Dallas,TX,US,
Spotify,ADVERTISER,Entertainment & Media,https://www.spotify.com,Stockholm,,Sweden,
Sprint,ADVERTISER,Telecommunications,https://www.sprint.com,Overland Park,KS,US,
T-Mobile,ADVERTISER,Telecommunications,https://www.t-mobile.com,Bellevue,WA,US,
TikTok,ADVERTISER,Technology & Social Media,https://www.tiktok.com,Culver City,CA,US,
Twitter,ADVERTISER,Technology & Social Media,https://www.twitter.com,San Francisco,CA,US,
Uber,ADVERTISER,Transportation & Ridesharing,https://www.uber.com,San Francisco,CA,US,
United Airlines,ADVERTISER,Travel & Hospitality,https://www.united.com,Chicago,IL,US,
UPS,ADVERTISER,Logistics & Transportation,https://www.ups.com,Atlanta,GA,US,
Visa,ADVERTISER,Financial Services,https://www.visa.com,San Francisco,CA,US,
Walgreens,ADVERTISER,Healthcare & Pharmacy,https://www.walgreens.com,Deerfield,IL,US,
Wells Fargo,ADVERTISER,Financial Services,https://www.wellsfargo.com,San Francisco,CA,US,
Whole Foods,ADVERTISER,Retail & Food,https://www.wholefoodsmarket.com,Austin,TX,US,
Zillow,ADVERTISER,Real Estate,https://www.zillow.com,Seattle,WA,US,
Zoom,ADVERTISER,Technology,https://www.zoom.us,San Jose,CA,US,
3M,ADVERTISER,Industrial & Consumer Products,https://www.3m.com,St. Paul,MN,US,
ABInBev,ADVERTISER,Food & Beverage,https://www.ab-inbev.com,Leuven,,Belgium,
Accenture,ADVERTISER,Consulting & Technology,https://www.accenture.com,Dublin,,Ireland,
Adidas,ADVERTISER,Retail & Footwear,https://www.adidas.com,Herzogenaurach,,Germany,
AIG,ADVERTISER,Financial Services & Insurance,https://www.aig.com,New York,NY,US,
Allstate,ADVERTISER,Insurance,https://www.allstate.com,Northbrook,IL,US,
Audi,ADVERTISER,Automotive,https://www.audi.com,Ingolstadt,,Germany,
AXA,ADVERTISER,Insurance,https://www.axa.com,Paris,,France,
Bayer,ADVERTISER,Pharmaceuticals & Healthcare,https://www.bayer.com,Leverkusen,,Germany,
Best Buy,ADVERTISER,Retail & Electronics,https://www.bestbuy.com,Richfield,MN,US,
BMW Group,ADVERTISER,Automotive,https://www.bmwgroup.com,Munich,,Germany,
Bristol Myers Squibb,ADVERTISER,Pharmaceuticals & Healthcare,https://www.bms.com,New York,NY,US,
Burger King,ADVERTISER,Food & Beverage,https://www.burgerking.com,Miami,FL,US,
Canon,ADVERTISER,Technology & Electronics,https://www.canon.com,Tokyo,,Japan,
Caterpillar,ADVERTISER,Industrial & Construction,https://www.caterpillar.com,Deerfield,IL,US,
Chanel,ADVERTISER,Luxury & Fashion,https://www.chanel.com,Paris,,France,
Chipotle,ADVERTISER,Food & Beverage,https://www.chipotle.com,Newport Beach,CA,US,
Citi,ADVERTISER,Financial Services,https://www.citi.com,New York,NY,US,
Colgate-Palmolive,ADVERTISER,Consumer Products,https://www.colgatepalmolive.com,New York,NY,US,
Comcast,ADVERTISER,Telecommunications & Media,https://www.comcast.com,Philadelphia,PA,US,
Deloitte,ADVERTISER,Consulting & Professional Services,https://www.deloitte.com,London,,UK,
Diageo,ADVERTISER,Food & Beverage,https://www.diageo.com,London,,UK,
Domino's,ADVERTISER,Food & Beverage,https://www.dominos.com,Ann Arbor,MI,US,
Dropbox,ADVERTISER,Technology,https://www.dropbox.com,San Francisco,CA,US,
Dunkin',ADVERTISER,Food & Beverage,https://www.dunkindonuts.com,Canton,MA,US,
DuPont de Nemours,ADVERTISER,Chemicals & Materials,https://www.dupont.com,Wilmington,DE,US,
EA Games,ADVERTISER,Entertainment & Gaming,https://www.ea.com,Redwood City,CA,US,
Expedia,ADVERTISER,Travel & Hospitality,https://www.expedia.com,Seattle,WA,US,
ExxonMobil,ADVERTISER,Energy & Oil,https://www.exxonmobil.com,Irving,TX,US,
Facebook,ADVERTISER,Technology & Social Media,https://www.facebook.com,Menlo Park,CA,US,
Ferrari,ADVERTISER,Automotive,https://www.ferrari.com,Maranello,,Italy,
Fidelity,ADVERTISER,Financial Services,https://www.fidelity.com,Boston,MA,US,
Gap,ADVERTISER,Retail & Fashion,https://www.gap.com,San Francisco,CA,US,
GE Healthcare,ADVERTISER,Healthcare & Medical Devices,https://www.gehealthcare.com,Chicago,IL,US,
Gillette,ADVERTISER,Consumer Products,https://www.gillette.com,Boston,MA,US,
GlaxoSmithKline,ADVERTISER,Pharmaceuticals & Healthcare,https://www.gsk.com,Brentford,,UK,
Gucci,ADVERTISER,Luxury & Fashion,https://www.gucci.com,Florence,,Italy,
H&M,ADVERTISER,Retail & Fashion,https://www.hm.com,Stockholm,,Sweden,
Harley-Davidson,ADVERTISER,Automotive & Motorcycles,https://www.harley-davidson.com,Milwaukee,WI,US,
Hasbro,ADVERTISER,Toys & Games,https://www.hasbro.com,Pawtucket,RI,US,
HBO,ADVERTISER,Entertainment & Media,https://www.hbo.com,New York,NY,US,
Heineken,ADVERTISER,Food & Beverage,https://www.heineken.com,Amsterdam,,Netherlands,
Hershey's,ADVERTISER,Food & Beverage,https://www.hersheys.com,Hershey,PA,US,
Hilton,ADVERTISER,Travel & Hospitality,https://www.hilton.com,McLean,VA,US,
Honda,ADVERTISER,Automotive,https://www.honda.com,Tokyo,,Japan,
HSBC,ADVERTISER,Financial Services,https://www.hsbc.com,London,,UK,
Huawei,ADVERTISER,Technology & Telecommunications,https://www.huawei.com,Shenzhen,,China,
Hulu,ADVERTISER,Entertainment & Media,https://www.hulu.com,Los Angeles,CA,US,
IKEA,ADVERTISER,Retail & Furniture,https://www.ikea.com,Delft,,Netherlands,
Instagram,ADVERTISER,Technology & Social Media,https://www.instagram.com,Menlo Park,CA,US,
Intuit,ADVERTISER,Technology & Financial Software,https://www.intuit.com,Mountain View,CA,US,
JCPenney,ADVERTISER,Retail,https://www.jcpenney.com,Plano,TX,US,
Kellogg's,ADVERTISER,Food & Beverage,https://www.kelloggs.com,Battle Creek,MI,US,
KFC,ADVERTISER,Food & Beverage,https://www.kfc.com,Louisville,KY,US,
Kia,ADVERTISER,Automotive,https://www.kia.com,Seoul,,South Korea,
L'Oréal,ADVERTISER,Beauty & Personal Care,https://www.loreal.com,Clichy,,France,
Lexus,ADVERTISER,Automotive,https://www.lexus.com,Nagoya,,Japan,
LinkedIn,ADVERTISER,Technology & Professional Services,https://www.linkedin.com,Sunnyvale,CA,US,
Louis Vuitton,ADVERTISER,Luxury & Fashion,https://www.louisvuitton.com,Paris,,France,
Lufthansa,ADVERTISER,Travel & Airlines,https://www.lufthansa.com,Cologne,,Germany,
Macy's,ADVERTISER,Retail,https://www.macys.com,New York,NY,US,
Mars,ADVERTISER,Food & Beverage,https://www.mars.com,McLean,VA,US,
Marvel,ADVERTISER,Entertainment & Media,https://www.marvel.com,New York,NY,US,
Mazda,ADVERTISER,Automotive,https://www.mazda.com,Hiroshima,,Japan,
Mayo Clinic,ADVERTISER,Healthcare,https://www.mayoclinic.org,Rochester,MN,US,
Mercedes-Benz,ADVERTISER,Automotive,https://www.mercedes-benz.com,Stuttgart,,Germany,
MetLife,ADVERTISER,Insurance,https://www.metlife.com,New York,NY,US,
MGM Resorts,ADVERTISER,Travel & Hospitality,https://www.mgmresorts.com,Las Vegas,NV,US,
Moderna,ADVERTISER,Pharmaceuticals & Healthcare,https://www.modernatx.com,Cambridge,MA,US,
Mondelez,ADVERTISER,Food & Beverage,https://www.mondelezinternational.com,Chicago,IL,US,
Morgan Stanley,ADVERTISER,Financial Services,https://www.morganstanley.com,New York,NY,US,
Motorola,ADVERTISER,Technology & Telecommunications,https://www.motorola.com,Chicago,IL,US,
NASA,ADVERTISER,Government & Aerospace,https://www.nasa.gov,Washington,DC,US,
NBC,ADVERTISER,Entertainment & Media,https://www.nbc.com,New York,NY,US,
Nespresso,ADVERTISER,Food & Beverage,https://www.nespresso.com,Lausanne,,Switzerland,
New Balance,ADVERTISER,Retail & Footwear,https://www.newbalance.com,Boston,MA,US,
NFL,ADVERTISER,Sports & Entertainment,https://www.nfl.com,New York,NY,US,
Nissan,ADVERTISER,Automotive,https://www.nissan.com,Yokohama,,Japan,
Nokia,ADVERTISER,Technology & Telecommunications,https://www.nokia.com,Espoo,,Finland,
Novartis,ADVERTISER,Pharmaceuticals & Healthcare,https://www.novartis.com,Basel,,Switzerland,
NVIDIA,ADVERTISER,Technology,https://www.nvidia.com,Santa Clara,CA,US,
Old Navy,ADVERTISER,Retail & Fashion,https://www.oldnavy.com,San Francisco,CA,US,
Olive Garden,ADVERTISER,Food & Beverage,https://www.olivegarden.com,Orlando,FL,US,
Panera Bread,ADVERTISER,Food & Beverage,https://www.panerabread.com,St. Louis,MO,US,
Papa John's,ADVERTISER,Food & Beverage,https://www.papajohns.com,Louisville,KY,US,
Paramount,ADVERTISER,Entertainment & Media,https://www.paramount.com,Los Angeles,CA,US,
Patagonia,ADVERTISER,Retail & Outdoor Apparel,https://www.patagonia.com,Ventura,CA,US,
PetSmart,ADVERTISER,Retail & Pet Care,https://www.petsmart.com,Phoenix,AZ,US,
Pinterest,ADVERTISER,Technology & Social Media,https://www.pinterest.com,San Francisco,CA,US,
Pizza Hut,ADVERTISER,Food & Beverage,https://www.pizzahut.com,Plano,TX,US,
Porsche,ADVERTISER,Automotive,https://www.porsche.com,Stuttgart,,Germany,
Prada,ADVERTISER,Luxury & Fashion,https://www.prada.com,Milan,,Italy,
Progressive,ADVERTISER,Insurance,https://www.progressive.com,Mayfield Village,OH,US,
Prudential,ADVERTISER,Financial Services & Insurance,https://www.prudential.com,Newark,NJ,US,
Puma,ADVERTISER,Retail & Footwear,https://www.puma.com,Herzogenaurach,,Germany,
Qualcomm,ADVERTISER,Technology,https://www.qualcomm.com,San Diego,CA,US,
Ralph Lauren,ADVERTISER,Retail & Fashion,https://www.ralphlauren.com,New York,NY,US,
Raytheon,ADVERTISER,Defense & Aerospace,https://www.raytheon.com,Waltham,MA,US,
Red Bull,ADVERTISER,Food & Beverage,https://www.redbull.com,Fuschl am See,,Austria,
Reebok,ADVERTISER,Retail & Footwear,https://www.reebok.com,Boston,MA,US,
Reddit,ADVERTISER,Technology & Social Media,https://www.reddit.com,San Francisco,CA,US,
Ritz-Carlton,ADVERTISER,Travel & Hospitality,https://www.ritzcarlton.com,Bethesda,MD,US,
Rolex,ADVERTISER,Luxury & Watches,https://www.rolex.com,Geneva,,Switzerland,
SAP,ADVERTISER,Technology & Enterprise Software,https://www.sap.com,Walldorf,,Germany,
Sephora,ADVERTISER,Retail & Beauty,https://www.sephora.com,San Francisco,CA,US,
Shell,ADVERTISER,Energy & Oil,https://www.shell.com,The Hague,,Netherlands,
Siemens,ADVERTISER,Industrial & Technology,https://www.siemens.com,Munich,,Germany,
Sony,ADVERTISER,Technology & Electronics,https://www.sony.com,Tokyo,,Japan,
Square,ADVERTISER,Financial Services & Technology,https://www.squareup.com,San Francisco,CA,US,
State Farm,ADVERTISER,Insurance,https://www.statefarm.com,Bloomington,IL,US,
Subaru,ADVERTISER,Automotive,https://www.subaru.com,Tokyo,,Japan,
Subway,ADVERTISER,Food & Beverage,https://www.subway.com,Milford,CT,US,
Taco Bell,ADVERTISER,Food & Beverage,https://www.tacobell.com,Irvine,CA,US,
TD Bank,ADVERTISER,Financial Services,https://www.td.com,Toronto,,Canada,
Tiffany & Co.,ADVERTISER,Luxury & Jewelry,https://www.tiffany.com,New York,NY,US,
TJX Companies,ADVERTISER,Retail,https://www.tjx.com,Framingham,MA,US,
Tommy Hilfiger,ADVERTISER,Retail & Fashion,https://www.tommy.com,New York,NY,US,
Toshiba,ADVERTISER,Technology & Electronics,https://www.toshiba.com,Tokyo,,Japan,
Toyota Financial Services,ADVERTISER,Financial Services,https://www.toyotafinancial.com,Plano,TX,US,
Trader Joe's,ADVERTISER,Retail & Food,https://www.traderjoes.com,Monrovia,CA,US,
Travelers,ADVERTISER,Insurance,https://www.travelers.com,New York,NY,US,
TripAdvisor,ADVERTISER,Travel & Hospitality,https://www.tripadvisor.com,Needham,MA,US,
Truist,ADVERTISER,Financial Services,https://www.truist.com,Charlotte,NC,US,
Twitch,ADVERTISER,Entertainment & Streaming,https://www.twitch.tv,San Francisco,CA,US,
Under Armour,ADVERTISER,Retail & Sports Apparel,https://www.underarmour.com,Baltimore,MD,US,
Unilever,ADVERTISER,Consumer Products,https://www.unilever.com,London,,UK,
Universal Pictures,ADVERTISER,Entertainment & Media,https://www.universalpictures.com,Universal City,CA,US,
UnitedHealthcare,ADVERTISER,Healthcare & Insurance,https://www.uhc.com,Minnetonka,MN,US,
US Bank,ADVERTISER,Financial Services,https://www.usbank.com,Minneapolis,MN,US,
USAA,ADVERTISER,Financial Services & Insurance,https://www.usaa.com,San Antonio,TX,US,
Valve,ADVERTISER,Technology & Gaming,https://www.valvesoftware.com,Bellevue,WA,US,
Venmo,ADVERTISER,Financial Services & Technology,https://www.venmo.com,New York,NY,US,
Volkswagen,ADVERTISER,Automotive,https://www.volkswagen.com,Wolfsburg,,Germany,
Volvo,ADVERTISER,Automotive,https://www.volvo.com,Gothenburg,,Sweden,
Warner Bros,ADVERTISER,Entertainment & Media,https://www.warnerbros.com,Burbank,CA,US,
Wayfair,ADVERTISER,Retail & Furniture,https://www.wayfair.com,Boston,MA,US,
WeWork,ADVERTISER,Real Estate & Coworking,https://www.wework.com,New York,NY,US,
Whirlpool,ADVERTISER,Consumer Appliances,https://www.whirlpool.com,Benton Harbor,MI,US,
Wingstop,ADVERTISER,Food & Beverage,https://www.wingstop.com,Dallas,TX,US,
Xerox,ADVERTISER,Technology & Office Solutions,https://www.xerox.com,Norwalk,CT,US,
Yum! Brands,ADVERTISER,Food & Beverage,https://www.yum.com,Louisville,KY,US,
Zara,ADVERTISER,Retail & Fashion,https://www.zara.com,Arteixo,,Spain,
Burke Williams Day Spa,ADVERTISER,Health & Wellness,https://www.burkewilliamsspa.com,Los Angeles,CA,US,
Carnival Corporation,ADVERTISER,Travel & Hospitality,https://www.carnival.com,Miami,FL,US,
Los Angeles Tourism,ADVERTISER,Tourism & Hospitality,https://www.discoverlosangeles.com,Los Angeles,CA,US,
LVMH,ADVERTISER,Luxury & Fashion,https://www.lvmh.com,Paris,,France,
Monmouth Park Racetrack,ADVERTISER,Sports & Entertainment,https://www.monmouthpark.com,Oceanport,NJ,US,
The Broad,ADVERTISER,Arts & Culture,https://www.thebroad.org,Los Angeles,CA,US,
Norseland Inc.,ADVERTISER,Food & Beverage,https://www.norseland.com,Stamford,CT,US,
Bob's Red Mill,ADVERTISER,Food & Beverage,https://www.bobsredmill.com,Milwaukie,OR,US,
Brown-Forman,ADVERTISER,Food & Beverage,https://www.brown-forman.com,Louisville,KY,US,
Flagstone Foods,ADVERTISER,Food & Beverage,https://www.flagstonefoods.com,Northbrook,IL,US,
John B. Sanfilippo & Son,ADVERTISER,Food & Beverage,https://www.jbssinc.com,Elgin,IL,US,
Lamb Weston,ADVERTISER,Food & Beverage,https://www.lambweston.com,Eagle,ID,US,
Palermo's,ADVERTISER,Food & Beverage,https://www.palermospizza.com,Milwaukee,WI,US,
Schreiber Foods,ADVERTISER,Food & Beverage,https://www.schreiberfoods.com,Green Bay,WI,US,
White Castle,ADVERTISER,Food & Beverage,https://www.whitecastle.com,Columbus,OH,US,
Wolverine Worldwide,ADVERTISER,Retail & Footwear,https://www.wolverineworldwide.com,Rockford,MI,US,
Brookfield Properties,ADVERTISER,Real Estate,https://www.brookfieldproperties.com,New York,NY,US,
Meow Wolf,ADVERTISER,Entertainment & Media,https://www.meowwolf.com,Santa Fe,NM,US,
Associated Food Stores,ADVERTISER,Retail & Food,https://www.afstores.com,Salt Lake City,UT,US,
GO Car Wash,ADVERTISER,Automotive Services,https://www.gocarwash.com,Salt Lake City,UT,US,
Papa Murphy's,ADVERTISER,Food & Beverage,https://www.papamurphys.com,Vancouver,WA,US,
Peter Levi Plumbing,ADVERTISER,Home Services,https://www.peterlevi.com,San Jose,CA,US,
Quick Quack Car Wash,ADVERTISER,Automotive Services,https://www.qqcarwash.com,Sacramento,CA,US,
TBC Corporation,ADVERTISER,Automotive Services,https://www.tbccorp.com,Palm Beach Gardens,FL,US,
Bass Pro Shops,ADVERTISER,Retail & Outdoor,https://www.basspro.com,Springfield,MO,US,
CFP Board,ADVERTISER,Financial Services,https://www.cfp.net,Washington,DC,US,
Community Health Systems,ADVERTISER,Healthcare,https://www.chs.net,Franklin,TN,US,
Cracker Barrel,ADVERTISER,Food & Beverage,https://www.crackerbarrel.com,Lebanon,TN,US,
Huddle House,ADVERTISER,Food & Beverage,https://www.huddlehouse.com,Atlanta,GA,US,
Huntamaki,ADVERTISER,Packaging & Materials,https://www.huhtamaki.com,Espoo,,Finland,
Krystal,ADVERTISER,Food & Beverage,https://www.krystal.com,Atlanta,GA,US,
LongHorn Steakhouse,ADVERTISER,Food & Beverage,https://www.longhornsteakhouse.com,Orlando,FL,US,
O'Reilly Automotive,ADVERTISER,Automotive Services,https://www.oreillyauto.com,Springfield,MO,US,
Pabst Brewing Company,ADVERTISER,Food & Beverage,https://www.pabstbrewingco.com,Los Angeles,CA,US,
PENN Entertainment,ADVERTISER,Gaming & Entertainment,https://www.pennentertainment.com,Wyomissing,PA,US,
Perkins,ADVERTISER,Food & Beverage,https://www.perkinsrestaurants.com,Memphis,TN,US,
Republic Bank,ADVERTISER,Financial Services,https://www.republicbank.com,Louisville,KY,US,
Servpro,ADVERTISER,Home Services,https://www.servpro.com,Gallatin,TN,US,
Southwind Building Products,ADVERTISER,Construction & Materials,https://www.southwind.com,Atlanta,GA,US,
Tennessee Lottery,ADVERTISER,Gaming & Entertainment,https://www.tnlottery.com,Nashville,TN,US,
Tillamook,ADVERTISER,Food & Beverage,https://www.tillamook.com,Tillamook,OR,US,
TREX Company,ADVERTISER,Construction & Materials,https://www.trex.com,Winchester,VA,US,
Webflow,ADVERTISER,Technology,https://www.webflow.com,San Francisco,CA,US,
Athene,ADVERTISER,Financial Services,https://www.athene.com,West Des Moines,IA,US,
Fellowes,ADVERTISER,Office Products,https://www.fellowes.com,Itasca,IL,US,
Moderna Inc.,ADVERTISER,Pharmaceuticals & Healthcare,https://www.modernatx.com,Cambridge,MA,US,
scPharmaceuticals,ADVERTISER,Pharmaceuticals & Healthcare,https://www.scpharmaceuticals.com,Burlington,MA,US,
The Joint Chiropractic,ADVERTISER,Healthcare,https://www.thejoint.com,Scottsdale,AZ,US,
WX Brands,ADVERTISER,Consumer Products,https://www.wxbrands.com,San Francisco,CA,US,
Air Methods,ADVERTISER,Healthcare & Aviation,https://www.airmethods.com,Greenwood Village,CO,US,
Becker,ADVERTISER,Professional Services,https://www.becker.com,Chicago,IL,US,
Benjamin Moore,ADVERTISER,Consumer Products,https://www.benjaminmoore.com,Montvale,NJ,US,
CrowdStrike,ADVERTISER,Technology & Cybersecurity,https://www.crowdstrike.com,Austin,TX,US,
Denver Tourism,ADVERTISER,Tourism & Hospitality,https://www.denver.org,Denver,CO,US,
Global Christian Relief,ADVERTISER,Nonprofit & Charity,https://www.globalchristianrelief.org,Plano,TX,US,
Gymshark,ADVERTISER,Retail & Sports Apparel,https://www.gymshark.com,Solihull,,UK,
Haw par,ADVERTISER,Healthcare & Consumer Products,https://www.hawpar.com,Singapore,,Singapore,
KVC Health Systems,ADVERTISER,Healthcare,https://www.kvc.org,Olathe,KS,US,
Mitsubishi,ADVERTISER,Automotive,https://www.mitsubishi.com,Tokyo,,Japan,
New Mexico Lottery,ADVERTISER,Gaming & Entertainment,https://www.nmlottery.com,Albuquerque,NM,US,
Pella Corporation,ADVERTISER,Construction & Home Improvement,https://www.pella.com,Pella,IA,US,
Post Brothers,ADVERTISER,Real Estate,https://www.postbrothers.com,Philadelphia,PA,US,
Publix,ADVERTISER,Retail & Food,https://www.publix.com,Lakeland,FL,US,
Raising Cane's,ADVERTISER,Food & Beverage,https://www.raisingcanes.com,Baton Rouge,LA,US,
Snooze,ADVERTISER,Food & Beverage,https://www.snoozeeatery.com,Denver,CO,US,
Staples,ADVERTISER,Retail & Office Supplies,https://www.staples.com,Framingham,MA,US,
Susan G Komen Foundation,ADVERTISER,Nonprofit & Charity,https://www.komen.org,Dallas,TX,US,
Glanbia Performance Nutrition,ADVERTISER,Health & Wellness,https://www.glanbia.com,Kilkenny,,Ireland,
Revlon,ADVERTISER,Beauty & Personal Care,https://www.revlon.com,New York,NY,US,
SharkNinja,ADVERTISER,Consumer Appliances,https://www.sharkninja.com,Needham,MA,US,
Invivyd,ADVERTISER,Pharmaceuticals & Healthcare,https://www.invivyd.com,Waltham,MA,US,
TheracosBio,ADVERTISER,Pharmaceuticals & Healthcare,https://www.theracosbio.com,Cambridge,MA,US,
PrizePicks,ADVERTISER,Gaming & Sports Betting,https://www.prizepicks.com,Atlanta,GA,US,
Skims,ADVERTISER,Retail & Fashion,https://www.skims.com,Los Angeles,CA,US,
Carl Buddig & Company,ADVERTISER,Food & Beverage,https://www.buddig.com,Homewood,IL,US,
Keurig Dr Pepper Inc.,ADVERTISER,Food & Beverage,https://www.keurigdrpepper.com,Burlington,MA,US,
BetFred Sportsbook,ADVERTISER,Gaming & Sports Betting,https://www.betfred.com,Warrington,,UK,
Bumble,ADVERTISER,Technology & Social Media,https://www.bumble.com,Austin,TX,US,
Charter Schools USA,ADVERTISER,Education,https://www.charterschoolsusa.com,Fort Lauderdale,FL,US,
Culture Pop Soda,ADVERTISER,Food & Beverage,https://www.culturepop.com,Austin,TX,US,
Keller Postman,ADVERTISER,Legal Services,https://www.kellerpostman.com,Chicago,IL,US,
National Grid,ADVERTISER,Energy & Utilities,https://www.nationalgrid.com,London,,UK,
Norfolk Southern,ADVERTISER,Logistics & Transportation,https://www.nscorp.com,Atlanta,GA,US,
Richard Mille,ADVERTISER,Luxury & Watches,https://www.richardmille.com,Les Breuleux,,Switzerland,
Whataburger,ADVERTISER,Food & Beverage,https://www.whataburger.com,San Antonio,TX,US,
Wind Creek Hospitality,ADVERTISER,Gaming & Hospitality,https://www.windcreekhospitality.com,Atmore,AL,US,
Wynk,ADVERTISER,Technology & Media,https://www.wynk.in,Mumbai,,India,
Bob Evans Restaurants,ADVERTISER,Food & Beverage,https://www.bobevans.com,New Albany,OH,US,
Ohio Tourism,ADVERTISER,Tourism & Hospitality,https://www.ohio.org,Columbus,OH,US,
ACH Food Company,ADVERTISER,Food & Beverage,https://www.achfood.com,Cordova,TN,US,
Art Institute of Chicago,ADVERTISER,Arts & Culture,https://www.artic.edu,Chicago,IL,US,
Boston Scientific,ADVERTISER,Healthcare & Medical Devices,https://www.bostonscientific.com,Marlborough,MA,US,
Citigroup,ADVERTISER,Financial Services,https://www.citigroup.com,New York,NY,US,
Crocs,ADVERTISER,Retail & Footwear,https://www.crocs.com,Broomfield,CO,US,
Froneri,ADVERTISER,Food & Beverage,https://www.froneri.com,Richmond,,UK,
HEB Grocery,ADVERTISER,Retail & Food,https://www.heb.com,San Antonio,TX,US,
HEYDUDE,ADVERTISER,Retail & Footwear,https://www.heydude.com,Boulder,CO,US,
Humana,ADVERTISER,Healthcare & Insurance,https://www.humana.com,Louisville,KY,US,
Mattel,ADVERTISER,Toys & Entertainment,https://www.mattel.com,El Segundo,CA,US,
Mattress Firm,ADVERTISER,Retail & Furniture,https://www.mattressfirm.com,Houston,TX,US,
Reckitt,ADVERTISER,Consumer Products,https://www.reckitt.com,Slough,,UK,
Rocket Mortgage,ADVERTISER,Financial Services,https://www.rocketmortgage.com,Detroit,MI,US,
Stellantis,ADVERTISER,Automotive,https://www.stellantis.com,Amsterdam,,Netherlands,
Texas Children's Hospital,ADVERTISER,Healthcare,https://www.texaschildrens.org,Houston,TX,US,
Vanguard,ADVERTISER,Financial Services,https://www.vanguard.com,Valley Forge,PA,US,
CBOE,ADVERTISER,Financial Services,https://www.cboe.com,Chicago,IL,US,
H & R Block,ADVERTISER,Financial Services,https://www.hrblock.com,Kansas City,MO,US,
Karmanos Cancer Institute,ADVERTISER,Healthcare,https://www.karmanos.org,Detroit,MI,US,
Rivers Casino,ADVERTISER,Gaming & Entertainment,https://www.riverscasino.com,Des Plaines,IL,US,
Harris for President,ADVERTISER,Political Campaign,https://www.kamalaharris.com,Washington,DC,US,
Joe Biden For President,ADVERTISER,Political Campaign,https://www.joebiden.com,Washington,DC,US,
MSF,ADVERTISER,Nonprofit & Charity,https://www.msf.org,Geneva,,Switzerland,
National Parks Foundation,ADVERTISER,Nonprofit & Charity,https://www.nationalparks.org,Washington,DC,US,
Orvis,ADVERTISER,Retail & Outdoor,https://www.orvis.com,Manchester,VT,US,
50 Floor,ADVERTISER,Home Improvement,https://www.50floor.com,Norcross,GA,US,
Activations App,ADVERTISER,Technology,https://www.activationsapp.com,Venice,CA,US,
Angi,ADVERTISER,Home Services,https://www.angi.com,Indianapolis,IN,US,
Aspire Allergy & Sinus,ADVERTISER,Healthcare,https://www.aspireallergy.com,San Antonio,TX,US,
BiOptimizers,ADVERTISER,Health & Wellness,https://www.bioptimizers.com,Austin,TX,US,
Cleveland Kitchen,ADVERTISER,Food & Beverage,https://www.clevelandkitchen.com,Cleveland,OH,US,
Compass,ADVERTISER,Real Estate,https://www.compass.com,New York,NY,US,
Heat Holders,ADVERTISER,Retail & Apparel,https://www.heatholders.com,Manchester,,UK,
Industrious,ADVERTISER,Real Estate & Coworking,https://www.industriousoffice.com,New York,NY,US,
Just Ingredients,ADVERTISER,Health & Wellness,https://www.justingredients.com,Los Angeles,CA,US,
Mathnasium,ADVERTISER,Education,https://www.mathnasium.com,Los Angeles,CA,US,
OpenText,ADVERTISER,Technology,https://www.opentext.com,Waterloo,,Canada,
Peluva,ADVERTISER,Retail & Footwear,https://www.peluva.com,Boulder,CO,US,
Vision Credit Union,ADVERTISER,Financial Services,https://www.visionone.org,Endicott,NY,US,
Webroot,ADVERTISER,Technology & Cybersecurity,https://www.webroot.com,Broomfield,CO,US,
Window Nation,ADVERTISER,Home Improvement,https://www.windownation.com,Rockville,MD,US,
Corteva Agriscience,ADVERTISER,Agriculture & Chemicals,https://www.corteva.com,Wilmington,DE,US,
Douglas Products,ADVERTISER,Agriculture,https://www.douglasproducts.com,Johnston,IA,US,
Ingredion,ADVERTISER,Food & Ingredients,https://www.ingredion.com,Westchester,IL,US,
McCain Foods,ADVERTISER,Food & Beverage,https://www.mccain.com,Florenceville-Bristol,,Canada,
Seaboard Foods,ADVERTISER,Food & Beverage,https://www.seaboardfoods.com,Shawnee Mission,KS,US,
Angel Studios,ADVERTISER,Entertainment & Media,https://www.angel.com,Provo,UT,US,
Avocados from Mexico,ADVERTISER,Food & Beverage,https://www.avocadosfrommexico.com,Irving,TX,US,
Biltmore,ADVERTISER,Travel & Hospitality,https://www.biltmore.com,Asheville,NC,US,
Catholic Charities of Dallas,ADVERTISER,Nonprofit & Charity,https://www.ccdallas.org,Dallas,TX,US,
Come Near,ADVERTISER,Technology,https://www.comenear.com,Austin,TX,US,
Hobby Lobby,ADVERTISER,Retail & Crafts,https://www.hobbylobby.com,Oklahoma City,OK,US,
Lifeway Foods,ADVERTISER,Food & Beverage,https://www.lifewayfoods.com,Morton Grove,IL,US,
National Pork Board,ADVERTISER,Agriculture & Food,https://www.pork.org,Des Moines,IA,US,
Reunion Tower,ADVERTISER,Tourism & Entertainment,https://www.reuniontower.com,Dallas,TX,US,
Salvation Army,ADVERTISER,Nonprofit & Charity,https://www.salvationarmyusa.org,Alexandria,VA,US,
TruLabs,ADVERTISER,Health & Wellness,https://www.trulabs.com,Dallas,TX,US,
National Student Clearinghouse,ADVERTISER,Education Services,https://www.studentclearinghouse.org,Herndon,VA,US,
NBA,ADVERTISER,Sports & Entertainment,https://www.nba.com,New York,NY,US,
Star Behavioral Health Providers,ADVERTISER,Healthcare,https://www.starproviders.org,Waltham,MA,US,
U.S. Census Bureau,ADVERTISER,Government,https://www.census.gov,Suitland,MD,US,
U.S. Department of Health and Human Services,ADVERTISER,Government,https://www.hhs.gov,Washington,DC,US,
Virginia's Insurance Marketplace,ADVERTISER,Insurance & Healthcare,https://www.virginia.healthcare.gov,Richmond,VA,US,