companyName,companyType,industry,website,city,state,country,parentCompanyName
Planit,AGENCY,Advertising & Marketing,https://www.planit.com,Baltimore,MD,US,
DuPont,ADVERTISER,Chemicals & Materials,https://www.dupont.com,Wilmington,DE,US,
Ebro Foods,ADVERTISER,Food & Beverage,https://www.ebrofoods.com,Madrid,,Spain,
Cooper Smith Stamford,AGENCY,Advertising & Marketing,,Stamford,CT,US,
Horizon Media NY,AGENCY,Media Planning & Buying,https://www.horizonmedia.com,New York,NY,US,
3fold Communications,AGENCY,Public Relations,https://www.3foldcomm.com,Denver,CO,US,
Astronomie,AGENCY,Digital Marketing,https://www.astronomie.com,Portland,OR,US,
Tinuiti LA,AGENCY,Digital Marketing,https://www.tinuiti.com,Los Angeles,CA,US,
Kepler Group Philadelphia,AGENCY,Media Planning & Buying,https://www.keplergrp.com,Philadelphia,PA,US,
Tinuiti NY,AGENCY,Digital Marketing,https://www.tinuiti.com,New York,NY,US,
Miles Partnership Denver,AGENCY,Tourism Marketing,https://www.milespartnership.com,Denver,CO,US,
Power Digital,AGENCY,Digital Marketing,https://www.powerdigitalmarketing.com,San Diego,CA,US,
Chamberlain Group,ADVERTISER,Consumer Products,https://www.chamberlaingroup.com,Oak Brook,IL,US,
Goldbelly,ADVERTISER,Food & Beverage,https://www.goldbelly.com,New York,NY,US,
MyFitnessPal,ADVERTISER,Health & Wellness,https://www.myfitnesspal.com,Austin,TX,US,
Duncan Channon,AGENCY,Advertising & Marketing,https://www.duncanchannon.com,San Francisco,CA,US,
Birkenstock,ADVERTISER,Retail & Footwear,https://www.birkenstock.com,Linz am Rhein,,Germany,
California Department of Public Health,ADVERTISER,Government & Public Sector,https://www.cdph.ca.gov,Sacramento,CA,US,
Golden State Warriors,ADVERTISER,Sports & Entertainment,https://www.nba.com/warriors,San Francisco,CA,US,
Fundamental Media Boston,AGENCY,Financial Marketing,https://www.fundamentalmedia.com,Boston,MA,US,
Allspring Global,ADVERTISER,Financial Services,https://www.allspringglobal.com,San Francisco,CA,US,
Northern Trust,ADVERTISER,Financial Services,https://www.northerntrust.com,Chicago,IL,US,
PIMCO,ADVERTISER,Financial Services,https://www.pimco.com,Newport Beach,CA,US,
State Street,ADVERTISER,Financial Services,https://www.statestreet.com,Boston,MA,US,
PMG Dallas,AGENCY,Digital Marketing,https://www.pmg.com,Dallas,TX,US,
Ace Hardware,ADVERTISER,Retail & Home Improvement,https://www.acehardware.com,Oak Brook,IL,US,
Apple,ADVERTISER,Technology,https://www.apple.com,Cupertino,CA,US,
Nike,ADVERTISER,Retail & Footwear,https://www.nike.com,Beaverton,OR,US,
Nordstrom,ADVERTISER,Retail & Fashion,https://www.nordstrom.com,Seattle,WA,US,
Intelligent Demand,AGENCY,B2B Marketing,https://www.intelligentdemand.com,Denver,CO,US,
WITHIN,AGENCY,Digital Marketing,https://www.within.co,New York,NY,US,
Pinnacle Advertising Chicago,AGENCY,Advertising & Marketing,https://www.pinnacle-advertising.com,Chicago,IL,US,
Talon Outdoor NY,AGENCY,Out-of-Home Advertising,https://www.talonoutdoor.com,New York,NY,US,
EssenceMediacom Bangalore,AGENCY,Media Planning & Buying,https://www.essencemediacom.com,Bangalore,,India,
Wpromote NY,AGENCY,Digital Marketing,https://www.wpromote.com,New York,NY,US,
Billups NY,AGENCY,Out-of-Home Advertising,https://www.billups.com,New York,NY,US,
Quan Media Group,AGENCY,Media Planning & Buying,https://www.quanmediagroup.com,New York,NY,US,
GroupeConnect Boston,AGENCY,Marketing Services,https://www.groupeconnect.com,Boston,MA,US,
GroupeConnect Chicago,AGENCY,Marketing Services,https://www.groupeconnect.com,Chicago,IL,US,
Cannonball Agency,AGENCY,Advertising & Marketing,,Nashville,TN,US,
USIM NY,AGENCY,Media Planning & Buying,https://www.usim.com,New York,NY,US,
Horizon Next NY,AGENCY,Media Planning & Buying,https://www.horizonmedia.com,New York,NY,US,
Good Apple Digital Las Vegas,AGENCY,Digital Marketing,https://www.goodapple.com,Las Vegas,NV,US,
Bold Orange,AGENCY,Advertising & Marketing,https://www.boldorange.com,Philadelphia,PA,US,
Canvas Worldwide LA,AGENCY,Media Planning & Buying,https://www.canvasworldwide.com,Los Angeles,CA,US,
Real Chemistry NY,AGENCY,Healthcare Communications,https://www.realchemistry.com,New York,NY,US,
Good Apple Digital NY,AGENCY,Digital Marketing,https://www.goodapple.com,New York,NY,US,
Horizon Media LA,AGENCY,Media Planning & Buying,https://www.horizonmedia.com,Los Angeles,CA,US,
Barbarian Group,AGENCY,Digital Marketing,https://www.barbariangroup.com,New York,NY,US,
Novus Media Chicago,AGENCY,Media Planning & Buying,https://www.novusmedia.com,Chicago,IL,US,
Realm B2B,AGENCY,B2B Marketing,https://www.realmb2b.com,Denver,CO,US,
Billups Chicago,AGENCY,Out-of-Home Advertising,https://www.billups.com,Chicago,IL,US,
PMG Fort Worth,AGENCY,Digital Marketing,https://www.pmg.com,Fort Worth,TX,US,
Fingerpaint Philadelphia,AGENCY,Healthcare Marketing,https://www.fingerpaint.com,Philadelphia,PA,US,
Cossette Toronto,AGENCY,Advertising & Marketing,https://www.cossette.com,Toronto,,Canada,
WPP Unite,AGENCY,Marketing Services,https://www.wpp.com,London,,UK,
ROI DNA,AGENCY,Digital Marketing,https://www.roidna.com,New York,NY,US,
Haworth Minneapolis,AGENCY,Marketing Services,https://www.haworth.com,Minneapolis,MN,US,
Project X Media NY,AGENCY,Media Planning & Buying,https://www.projectxmedia.com,New York,NY,US,
Curious Plot,AGENCY,Creative Agency,https://www.curiousplot.com,Brooklyn,NY,US,
LT Phoenix,AGENCY,Advertising & Marketing,,Phoenix,AZ,US,
Benedict Advertising,AGENCY,Advertising & Marketing,https://www.benedictadvertising.com,Daytona Beach,FL,US,
Ovative/group Minneapolis,AGENCY,Digital Marketing,https://www.ovative.com,Minneapolis,MN,US,
Gravity Global Minneapolis,AGENCY,B2B Marketing,https://www.gravityglobal.com,Minneapolis,MN,US,
Known NY,AGENCY,Advertising & Marketing,https://www.known.co,New York,NY,US,
PMG Austin,AGENCY,Digital Marketing,https://www.pmg.com,Austin,TX,US,
Bully Pulpit Interactive DC,AGENCY,Political & Public Affairs,https://www.bpimedia.com,Washington,DC,US,
Bully Pulpit Interactive NY,AGENCY,Political & Public Affairs,https://www.bpimedia.com,New York,NY,US,
Brainlabs,AGENCY,Digital Marketing,https://www.brainlabsdigital.com,London,,UK,
22squared Atlanta,AGENCY,Advertising & Marketing,https://www.22squared.com,Atlanta,GA,US,
Real Chemistry Philadelphia,AGENCY,Healthcare Communications,https://www.realchemistry.com,Philadelphia,PA,US,
Real Chemistry SF,AGENCY,Healthcare Communications,https://www.realchemistry.com,San Francisco,CA,US,
Cornett,AGENCY,Advertising & Marketing,https://www.cornett.com,Lexington,KY,US,
Mediassociates,AGENCY,Media Planning & Buying,https://www.mediassociates.com,Boston,MA,US,
Ten Adams,AGENCY,Political & Advocacy Marketing,https://www.tenadams.com,Washington,DC,US,
Fingerpaint Saratoga Springs,AGENCY,Healthcare Marketing,https://www.fingerpaint.com,Saratoga Springs,NY,US,
McKinney Raleigh,AGENCY,Advertising & Marketing,https://www.mckinney.com,Durham,NC,US,
McKinney NY,AGENCY,Advertising & Marketing,https://www.mckinney.com,New York,NY,US,
Attention Arc Raleigh,AGENCY,Digital Marketing,https://www.attentionarc.com,Raleigh,NC,US,
Attention Arc NY,AGENCY,Digital Marketing,https://www.attentionarc.com,New York,NY,US,
LEAP Louisville,AGENCY,Advertising & Marketing,https://www.leapllc.com,Louisville,KY,US,
MX Location Experts LA,AGENCY,Location-Based Marketing,https://www.mxlocationexperts.com,Los Angeles,CA,US,
MX Location Experts NY,AGENCY,Location-Based Marketing,https://www.mxlocationexperts.com,New York,NY,US,
Karen Fahey Advertising,AGENCY,Advertising & Marketing,,New York,NY,US,
Tinuiti Mexico,AGENCY,Digital Marketing,https://www.tinuiti.com,Mexico City,,Mexico,
Stream Companies,AGENCY,Advertising & Marketing,https://www.streamcompanies.com,Boston,MA,US,
Brandon Agency Charleston,AGENCY,Advertising & Marketing,https://www.brandonagency.com,Charleston,SC,US,
lg2 Toronto,AGENCY,Advertising & Marketing,https://www.lg2.com,Toronto,,Canada,
Hawke Media LA,AGENCY,Digital Marketing,https://www.hawkemedia.com,Los Angeles,CA,US,
M Booth,AGENCY,Public Relations,https://www.mbooth.com,New York,NY,US,
DEPT Chicago,AGENCY,Digital Marketing,https://www.deptagency.com,Chicago,IL,US,
Eversana Intouch Solutions Chicago,AGENCY,Healthcare Marketing,https://www.eversana.com,Chicago,IL,US,
Butler/Till Rochester,AGENCY,Advertising & Marketing,https://www.butlertill.com,Rochester,NY,US,
TRG Dallas,AGENCY,Advertising & Marketing,https://www.therichardsgroupinc.com,Dallas,TX,US,
PPK,AGENCY,Advertising & Marketing,https://www.ppk.com,Tampa,FL,US,
Deerfield Agency,AGENCY,Healthcare Marketing,https://www.deerfieldagency.com,Cincinnati,OH,US,
Jellyfish NY,AGENCY,Digital Marketing,https://www.jellyfish.com,New York,NY,US,
Billups LA,AGENCY,Out-of-Home Advertising,https://www.billups.com,Los Angeles,CA,US,
H/L Agency Phoenix,AGENCY,Advertising & Marketing,https://www.hlagency.com,Phoenix,AZ,US,
H/L Agency SF,AGENCY,Advertising & Marketing,https://www.hlagency.com,San Francisco,CA,US,
GLM Strategies,AGENCY,Marketing Services,,Washington,DC,US,
AMP Boston,AGENCY,Marketing Services,https://www.ampagency.com,Boston,MA,US,
Miller Advertising NY,AGENCY,Advertising & Marketing,https://www.milleradv.com,New York,NY,US,
Giant Spoon LA,AGENCY,Media & Creative Agency,https://www.giantspoon.com,Los Angeles,CA,US,
Wpromote Chicago,AGENCY,Digital Marketing,https://www.wpromote.com,Chicago,IL,US,
International Advertising Solutions,AGENCY,Advertising & Marketing,https://www.iasolutions.com,Clearwater,FL,US,
McGarrah Jessee,AGENCY,Advertising & Marketing,https://www.mcgarrahjessee.com,Austin,TX,US,
MX Location Experts London,AGENCY,Location-Based Marketing,https://www.mxlocationexperts.com,London,,UK,
NPRP Media,AGENCY,Media Planning & Buying,https://www.nprpmedia.com,New York,NY,US,
Harmelin Media Philadelphia,AGENCY,Media Planning & Buying,https://www.harmelin.com,Philadelphia,PA,US,
Bana Communications,AGENCY,Public Relations,https://www.banapr.com,New York,NY,US,
Mediasmith SF,AGENCY,Media Planning & Buying,https://www.mediasmith.com,San Francisco,CA,US,
AdCom Group,AGENCY,Media Planning & Buying,https://www.adcomgroup.com,Minneapolis,MN,US,
RPA LA,AGENCY,Advertising & Marketing,https://www.rpa.com,Santa Monica,CA,US,
Podscale,AGENCY,Podcast Advertising,https://www.podscale.com,New York,NY,US,
Horizon Media Toronto,AGENCY,Media Planning & Buying,https://www.horizonmedia.com,Toronto,,Canada,
Noble People NY,AGENCY,Media Planning & Buying,https://www.noblepeople.com,New York,NY,US,
Oxford Road,AGENCY,Audio Advertising,https://www.oxfordroad.com,Los Angeles,CA,US,
Horizon Media Chicago,AGENCY,Media Planning & Buying,https://www.horizonmedia.com,Chicago,IL,US,
Martin Retail Birmingham,AGENCY,Retail Marketing,https://www.martinretail.com,Birmingham,AL,US,
Liquid Soul,AGENCY,Digital Experience,https://www.liquidsoul.com,Providence,RI,US,
Cramer-Krasselt Chicago,AGENCY,Advertising & Marketing,https://www.c-k.com,Chicago,IL,US,
Wilkins Media Chicago,AGENCY,Media Planning & Buying,https://www.wilkinsmedia.com,Chicago,IL,US,
Transmission Austin,AGENCY,Media Planning & Buying,https://www.transmissionagency.com,Austin,TX,US,
Haberman,AGENCY,Public Relations & Marketing,https://www.habermaninc.com,Minneapolis,MN,US,
Klick Health Toronto,AGENCY,Healthcare Marketing,https://www.klick.com,Toronto,,Canada,
MMGY Global Kansas City,AGENCY,Tourism & Hospitality Marketing,https://www.mmgyglobal.com,Kansas City,MO,US,
Allied Global Marketing Atlanta,AGENCY,Entertainment Marketing,https://www.alliedim.com,Atlanta,GA,US,