companyName,companyType,industry,website,city,state,country,parentCompanyName
Omnicom Group,MEDIA_HOLDING_COMPANY,Advertising & Marketing,https://www.omnicomgroup.com,New York,NY,US,
Omnicom Media Group,AGENCY,Media Services,https://www.omnicommediagroup.com,New York,NY,US,Omnicom Group
Beauty Co-Lab,AGENCY,Beauty Marketing,https://www.beautycolab.com,New York,NY,US,Omnicom Group
Jump 450,AGENCY,Media Planning & Buying,https://www.jump450.com,New York,NY,US,Omnicom Group
Omnicom Media Group Chicago,AGENCY,Media Services,https://www.omnicommediagroup.com,Chicago,IL,US,Omnicom Group
Omnicom Media Group LA,AGENCY,Media Services,https://www.omnicommediagroup.com,Los Angeles,CA,US,Omnicom Group
Omnicom Media Group Latam,AGENCY,Media Services,https://www.omnicommediagroup.com,Miami,FL,US,Omnicom Group
Omnicom Media Group Montreal,AGENCY,Media Services,https://www.omnicommediagroup.com,Montreal,,Canada,Omnicom Group
Omnicom Media Group NY,AGENCY,Media Services,https://www.omnicommediagroup.com,New York,NY,US,Omnicom Group
Omnicom Media Group SF,AGENCY,Media Services,https://www.omnicommediagroup.com,San Francisco,CA,US,Omnicom Group
Omnicom Media Group Toronto,AGENCY,Media Services,https://www.omnicommediagroup.com,Toronto,,Canada,Omnicom Group
Omnicom Media Group UK,AGENCY,Media Services,https://www.omnicommediagroup.com,London,,United Kingdom,Omnicom Group
OMD,AGENCY,Media Planning & Buying,https://www.omd.com,New York,NY,US,Omnicom Group
OMD Adelaide,AGENCY,Media Planning & Buying,https://www.omd.com,Adelaide,,Australia,Omnicom Group
OMD Atlanta,AGENCY,Media Planning & Buying,https://www.omd.com,Atlanta,GA,US,Omnicom Group
OMD Bogota,AGENCY,Media Planning & Buying,https://www.omd.com,Bogota,,Colombia,Omnicom Group
OMD Brisbane,AGENCY,Media Planning & Buying,https://www.omd.com,Brisbane,,Australia,Omnicom Group
OMD Charlotte,AGENCY,Media Planning & Buying,https://www.omd.com,Charlotte,NC,US,Omnicom Group
OMD Chicago,AGENCY,Media Planning & Buying,https://www.omd.com,Chicago,IL,US,Omnicom Group
OMD Dallas,AGENCY,Media Planning & Buying,https://www.omd.com,Dallas,TX,US,Omnicom Group
OMD Dubai,AGENCY,Media Planning & Buying,https://www.omd.com,Dubai,,United Arab Emirates,Omnicom Group
OMD Hartford,AGENCY,Media Planning & Buying,https://www.omd.com,Hartford,CT,US,Omnicom Group
OMD Ireland,AGENCY,Media Planning & Buying,https://www.omd.com,Dublin,,Ireland,Omnicom Group
OMD Istanbul,AGENCY,Media Planning & Buying,https://www.omd.com,Istanbul,,Turkey,Omnicom Group
OMD LA,AGENCY,Media Planning & Buying,https://www.omd.com,Los Angeles,CA,US,Omnicom Group
OMD LATAM,AGENCY,Media Planning & Buying,https://www.omd.com,Miami,FL,US,Omnicom Group
OMD Melbourne,AGENCY,Media Planning & Buying,https://www.omd.com,Melbourne,,Australia,Omnicom Group
OMD Montreal,AGENCY,Media Planning & Buying,https://www.omd.com,Montreal,,Canada,Omnicom Group
OMD Nashville,AGENCY,Media Planning & Buying,https://www.omd.com,Nashville,TN,US,Omnicom Group
OMD NY,AGENCY,Media Planning & Buying,https://www.omd.com,New York,NY,US,Omnicom Group
OMD Perth,AGENCY,Media Planning & Buying,https://www.omd.com,Perth,,Australia,Omnicom Group
OMD Seattle,AGENCY,Media Planning & Buying,https://www.omd.com,Seattle,WA,US,Omnicom Group
OMD SF,AGENCY,Media Planning & Buying,https://www.omd.com,San Francisco,CA,US,Omnicom Group
OMD Shanghai,AGENCY,Media Planning & Buying,https://www.omd.com,Shanghai,,China,Omnicom Group
OMD Singapore,AGENCY,Media Planning & Buying,https://www.omd.com,Singapore,,Singapore,Omnicom Group
OMD Sydney,AGENCY,Media Planning & Buying,https://www.omd.com,Sydney,,Australia,Omnicom Group
OMD Toronto,AGENCY,Media Planning & Buying,https://www.omd.com,Toronto,,Canada,Omnicom Group
OMD UK,AGENCY,Media Planning & Buying,https://www.omd.com,London,,United Kingdom,Omnicom Group
OMD Vancouver,AGENCY,Media Planning & Buying,https://www.omd.com,Vancouver,,Canada,Omnicom Group
Zero Code,AGENCY,Performance Marketing,https://www.zerocode.com,New York,NY,US,Omnicom Group
Hearts & Science,AGENCY,Media Planning & Buying,https://www.heartsandscience.com,New York,NY,US,Omnicom Group
Hearts & Science Atlanta,AGENCY,Media Planning & Buying,https://www.heartsandscience.com,Atlanta,GA,US,Omnicom Group
Hearts & Science Bogota,AGENCY,Media Planning & Buying,https://www.heartsandscience.com,Bogota,,Colombia,Omnicom Group
Hearts & Science Burbank,AGENCY,Media Planning & Buying,https://www.heartsandscience.com,Burbank,CA,US,Omnicom Group
Hearts & Science Charlotte,AGENCY,Media Planning & Buying,https://www.heartsandscience.com,Charlotte,NC,US,Omnicom Group
Hearts & Science Dallas,AGENCY,Media Planning & Buying,https://www.heartsandscience.com,Dallas,TX,US,Omnicom Group
Hearts & Science LA,AGENCY,Media Planning & Buying,https://www.heartsandscience.com,Los Angeles,CA,US,Omnicom Group
Hearts & Science London,AGENCY,Media Planning & Buying,https://www.heartsandscience.com,London,,United Kingdom,Omnicom Group
Hearts & Science Miami,AGENCY,Media Planning & Buying,https://www.heartsandscience.com,Miami,FL,US,Omnicom Group
Hearts & Science NY,AGENCY,Media Planning & Buying,https://www.heartsandscience.com,New York,NY,US,Omnicom Group
Hearts & Science Puerto Rico,AGENCY,Media Planning & Buying,https://www.heartsandscience.com,San Juan,,Puerto Rico,Omnicom Group
Hearts & Science Sydney,AGENCY,Media Planning & Buying,https://www.heartsandscience.com,Sydney,,Australia,Omnicom Group
Hearts & Science Toronto,AGENCY,Media Planning & Buying,https://www.heartsandscience.com,Toronto,,Canada,Omnicom Group
PHD Media,AGENCY,Media Planning & Buying,https://www.phdmedia.com,New York,NY,US,Omnicom Group
PHD Atlanta,AGENCY,Media Planning & Buying,https://www.phdmedia.com,Atlanta,GA,US,Omnicom Group
PHD Auckland,AGENCY,Media Planning & Buying,https://www.phdmedia.com,Auckland,,New Zealand,Omnicom Group
PHD Bogota,AGENCY,Media Planning & Buying,https://www.phdmedia.com,Bogota,,Colombia,Omnicom Group
PHD Charlotte,AGENCY,Media Planning & Buying,https://www.phdmedia.com,Charlotte,NC,US,Omnicom Group
PHD Chicago,AGENCY,Media Planning & Buying,https://www.phdmedia.com,Chicago,IL,US,Omnicom Group
PHD Detroit,AGENCY,Media Planning & Buying,https://www.phdmedia.com,Detroit,MI,US,Omnicom Group
PHD Frankfurt,AGENCY,Media Planning & Buying,https://www.phdmedia.com,Frankfurt,,Germany,Omnicom Group
PHD LA,AGENCY,Media Planning & Buying,https://www.phdmedia.com,Los Angeles,CA,US,Omnicom Group
PHD Melbourne,AGENCY,Media Planning & Buying,https://www.phdmedia.com,Melbourne,,Australia,Omnicom Group
PHD Miami,AGENCY,Media Planning & Buying,https://www.phdmedia.com,Miami,FL,US,Omnicom Group
PHD Montreal,AGENCY,Media Planning & Buying,https://www.phdmedia.com,Montreal,,Canada,Omnicom Group
PHD NY,AGENCY,Media Planning & Buying,https://www.phdmedia.com,New York,NY,US,Omnicom Group
PHD Raleigh,AGENCY,Media Planning & Buying,https://www.phdmedia.com,Raleigh,NC,US,Omnicom Group
PHD Seattle,AGENCY,Media Planning & Buying,https://www.phdmedia.com,Seattle,WA,US,Omnicom Group
PHD SF,AGENCY,Media Planning & Buying,https://www.phdmedia.com,San Francisco,CA,US,Omnicom Group
PHD Singapore,AGENCY,Media Planning & Buying,https://www.phdmedia.com,Singapore,,Singapore,Omnicom Group
PHD Sydney,AGENCY,Media Planning & Buying,https://www.phdmedia.com,Sydney,,Australia,Omnicom Group
PHD Toronto,AGENCY,Media Planning & Buying,https://www.phdmedia.com,Toronto,,Canada,Omnicom Group
PHD UAE,AGENCY,Media Planning & Buying,https://www.phdmedia.com,Dubai,,United Arab Emirates,Omnicom Group
PHD UK,AGENCY,Media Planning & Buying,https://www.phdmedia.com,London,,United Kingdom,Omnicom Group
OMG23,AGENCY,Media Planning & Buying,https://www.omg23.com,New York,NY,US,Omnicom Group
OMG23 Burbank,AGENCY,Media Planning & Buying,https://www.omg23.com,Burbank,CA,US,Omnicom Group
OMG23 NY,AGENCY,Media Planning & Buying,https://www.omg23.com,New York,NY,US,Omnicom Group
OMG23 Toronto,AGENCY,Media Planning & Buying,https://www.omg23.com,Toronto,,Canada,Omnicom Group
GSD&M,AGENCY,Advertising & Marketing,https://www.gsdm.com,Austin,TX,US,Omnicom Group
GSD&M Austin,AGENCY,Advertising & Marketing,https://www.gsdm.com,Austin,TX,US,Omnicom Group
GSD&M Chicago,AGENCY,Advertising & Marketing,https://www.gsdm.com,Chicago,IL,US,Omnicom Group
Outdoor Media Group,AGENCY,Out of Home Media,https://www.outdoormediagroup.com,New York,NY,US,Omnicom Group
Outdoor Media Group Atlanta,AGENCY,Out of Home Media,https://www.outdoormediagroup.com,Atlanta,GA,US,Omnicom Group
Outdoor Media Group Burbank,AGENCY,Out of Home Media,https://www.outdoormediagroup.com,Burbank,CA,US,Omnicom Group
Outdoor Media Group Chicago,AGENCY,Out of Home Media,https://www.outdoormediagroup.com,Chicago,IL,US,Omnicom Group
Outdoor Media Group Dallas,AGENCY,Out of Home Media,https://www.outdoormediagroup.com,Dallas,TX,US,Omnicom Group
Outdoor Media Group Jersey City,AGENCY,Out of Home Media,https://www.outdoormediagroup.com,Jersey City,NJ,US,Omnicom Group
Outdoor Media Group LA,AGENCY,Out of Home Media,https://www.outdoormediagroup.com,Los Angeles,CA,US,Omnicom Group
Outdoor Media Group Miami,AGENCY,Out of Home Media,https://www.outdoormediagroup.com,Miami,FL,US,Omnicom Group
Outdoor Media Group Minneapolis,AGENCY,Out of Home Media,https://www.outdoormediagroup.com,Minneapolis,MN,US,Omnicom Group
Outdoor Media Group NY,AGENCY,Out of Home Media,https://www.outdoormediagroup.com,New York,NY,US,Omnicom Group
Outdoor Media Group Portland,AGENCY,Out of Home Media,https://www.outdoormediagroup.com,Portland,OR,US,Omnicom Group
Outdoor Media Group SF,AGENCY,Out of Home Media,https://www.outdoormediagroup.com,San Francisco,CA,US,Omnicom Group
Outdoor Media Group St Louis,AGENCY,Out of Home Media,https://www.outdoormediagroup.com,St. Louis,MO,US,Omnicom Group
Merkley+Partners,AGENCY,Advertising & Marketing,https://www.merkley.com,New York,NY,US,Omnicom Group
BBDO,AGENCY,Advertising & Marketing,https://www.bbdo.com,New York,NY,US,Omnicom Group
BBDO Atlanta,AGENCY,Advertising & Marketing,https://www.bbdo.com,Atlanta,GA,US,Omnicom Group
BBDO Dallas,AGENCY,Advertising & Marketing,https://www.bbdo.com,Dallas,TX,US,Omnicom Group
BBDO Detroit,AGENCY,Advertising & Marketing,https://www.bbdo.com,Detroit,MI,US,Omnicom Group
BBDO LA,AGENCY,Advertising & Marketing,https://www.bbdo.com,Los Angeles,CA,US,Omnicom Group
BBDO MW,AGENCY,Advertising & Marketing,https://www.bbdo.com,Minneapolis,MN,US,Omnicom Group
BBDO NY,AGENCY,Advertising & Marketing,https://www.bbdo.com,New York,NY,US,Omnicom Group
BBDO SF,AGENCY,Advertising & Marketing,https://www.bbdo.com,San Francisco,CA,US,Omnicom Group
BBDO UK,AGENCY,Advertising & Marketing,https://www.bbdo.com,London,,United Kingdom,Omnicom Group
Alma Agency,AGENCY,Hispanic Marketing,https://www.almaagency.com,Miami,FL,US,Omnicom Group
Alma Chicago,AGENCY,Hispanic Marketing,https://www.almaagency.com,Chicago,IL,US,Omnicom Group
Alma Miami,AGENCY,Hispanic Marketing,https://www.almaagency.com,Miami,FL,US,Omnicom Group
Alma SF,AGENCY,Hispanic Marketing,https://www.almaagency.com,San Francisco,CA,US,Omnicom Group
Alma Tallahassee,AGENCY,Hispanic Marketing,https://www.almaagency.com,Tallahassee,FL,US,Omnicom Group
OPTIMUM Sports,AGENCY,Sports Marketing,https://www.optimumsports.com,New York,NY,US,Omnicom Group
Optimum Sports Chicago,AGENCY,Sports Marketing,https://www.optimumsports.com,Chicago,IL,US,Omnicom Group
Optimum Sports LA,AGENCY,Sports Marketing,https://www.optimumsports.com,Los Angeles,CA,US,Omnicom Group
Optimum Sports NY,AGENCY,Sports Marketing,https://www.optimumsports.com,New York,NY,US,Omnicom Group
Outdoor Media Alliance,AGENCY,Out of Home Media,https://www.outdoormediaalliance.com,New York,NY,US,Omnicom Group
Outdoor Media Alliance Chicago,AGENCY,Out of Home Media,https://www.outdoormediaalliance.com,Chicago,IL,US,Omnicom Group
Outdoor Media Alliance Dallas,AGENCY,Out of Home Media,https://www.outdoormediaalliance.com,Dallas,TX,US,Omnicom Group
Outdoor Media Alliance Detroit,AGENCY,Out of Home Media,https://www.outdoormediaalliance.com,Detroit,MI,US,Omnicom Group
Outdoor Media Alliance NY,AGENCY,Out of Home Media,https://www.outdoormediaalliance.com,New York,NY,US,Omnicom Group
TeamX,AGENCY,Experiential Marketing,https://www.teamx.com,New York,NY,US,Omnicom Group
TeamX London,AGENCY,Experiential Marketing,https://www.teamx.com,London,,United Kingdom,Omnicom Group
TeamX NY,AGENCY,Experiential Marketing,https://www.teamx.com,New York,NY,US,Omnicom Group
Zimmerman Advertising,AGENCY,Advertising & Marketing,https://www.zimmerman.com,Fort Lauderdale,FL,US,Omnicom Group
Zimmerman Atlanta,AGENCY,Advertising & Marketing,https://www.zimmerman.com,Atlanta,GA,US,Omnicom Group
Zimmerman Chicago,AGENCY,Advertising & Marketing,https://www.zimmerman.com,Chicago,IL,US,Omnicom Group
Zimmerman Dallas,AGENCY,Advertising & Marketing,https://www.zimmerman.com,Dallas,TX,US,Omnicom Group
Zimmerman DC,AGENCY,Advertising & Marketing,https://www.zimmerman.com,Washington,DC,US,Omnicom Group
Zimmerman Denver,AGENCY,Advertising & Marketing,https://www.zimmerman.com,Denver,CO,US,Omnicom Group
Zimmerman Ft. Lauderdale,AGENCY,Advertising & Marketing,https://www.zimmerman.com,Fort Lauderdale,FL,US,Omnicom Group
Zimmerman LA,AGENCY,Advertising & Marketing,https://www.zimmerman.com,Los Angeles,CA,US,Omnicom Group
Zimmerman Nashville,AGENCY,Advertising & Marketing,https://www.zimmerman.com,Nashville,TN,US,Omnicom Group
Zimmerman NY,AGENCY,Advertising & Marketing,https://www.zimmerman.com,New York,NY,US,Omnicom Group
Content Collective,AGENCY,Content Production,https://www.contentcollective.com,New York,NY,US,Omnicom Group
Content Collective Chicago,AGENCY,Content Production,https://www.contentcollective.com,Chicago,IL,US,Omnicom Group
Content Collective LA,AGENCY,Content Production,https://www.contentcollective.com,Los Angeles,CA,US,Omnicom Group
Content Collective NY,AGENCY,Content Production,https://www.contentcollective.com,New York,NY,US,Omnicom Group
FleishmanHillard,AGENCY,Public Relations,https://www.fleishmanhillard.com,St. Louis,MO,US,Omnicom Group
FleishmanHillard Atlanta,AGENCY,Public Relations,https://www.fleishmanhillard.com,Atlanta,GA,US,Omnicom Group
FleishmanHillard Austin,AGENCY,Public Relations,https://www.fleishmanhillard.com,Austin,TX,US,Omnicom Group
FleishmanHillard Boston,AGENCY,Public Relations,https://www.fleishmanhillard.com,Boston,MA,US,Omnicom Group
FleishmanHillard Charlotte,AGENCY,Public Relations,https://www.fleishmanhillard.com,Charlotte,NC,US,Omnicom Group
FleishmanHillard Chicago,AGENCY,Public Relations,https://www.fleishmanhillard.com,Chicago,IL,US,Omnicom Group
FleishmanHillard Dallas,AGENCY,Public Relations,https://www.fleishmanhillard.com,Dallas,TX,US,Omnicom Group
FleishmanHillard DC,AGENCY,Public Relations,https://www.fleishmanhillard.com,Washington,DC,US,Omnicom Group
FleishmanHillard Detroit,AGENCY,Public Relations,https://www.fleishmanhillard.com,Detroit,MI,US,Omnicom Group
FleishmanHillard Houston,AGENCY,Public Relations,https://www.fleishmanhillard.com,Houston,TX,US,Omnicom Group
FleishmanHillard Irvine,AGENCY,Public Relations,https://www.fleishmanhillard.com,Irvine,CA,US,Omnicom Group
FleishmanHillard Kansas City,AGENCY,Public Relations,https://www.fleishmanhillard.com,Kansas City,MO,US,Omnicom Group
FleishmanHillard LA,AGENCY,Public Relations,https://www.fleishmanhillard.com,Los Angeles,CA,US,Omnicom Group
FleishmanHillard London,AGENCY,Public Relations,https://www.fleishmanhillard.com,London,,United Kingdom,Omnicom Group
FleishmanHillard Miami,AGENCY,Public Relations,https://www.fleishmanhillard.com,Miami,FL,US,Omnicom Group
FleishmanHillard Minneapolis,AGENCY,Public Relations,https://www.fleishmanhillard.com,Minneapolis,MN,US,Omnicom Group
FleishmanHillard NY,AGENCY,Public Relations,https://www.fleishmanhillard.com,New York,NY,US,Omnicom Group
FleishmanHillard Ottawa,AGENCY,Public Relations,https://www.fleishmanhillard.com,Ottawa,,Canada,Omnicom Group
FleishmanHillard Raleigh,AGENCY,Public Relations,https://www.fleishmanhillard.com,Raleigh,NC,US,Omnicom Group
FleishmanHillard Sacramento,AGENCY,Public Relations,https://www.fleishmanhillard.com,Sacramento,CA,US,Omnicom Group
FleishmanHillard San Diego,AGENCY,Public Relations,https://www.fleishmanhillard.com,San Diego,CA,US,Omnicom Group
FleishmanHillard SF,AGENCY,Public Relations,https://www.fleishmanhillard.com,San Francisco,CA,US,Omnicom Group
FleishmanHillard St. Louis,AGENCY,Public Relations,https://www.fleishmanhillard.com,St. Louis,MO,US,Omnicom Group
FleishmanHillard Sydney,AGENCY,Public Relations,https://www.fleishmanhillard.com,Sydney,,Australia,Omnicom Group
FleishmanHillard Toronto,AGENCY,Public Relations,https://www.fleishmanhillard.com,Toronto,,Canada,Omnicom Group
FleishmanHillard Vancouver,AGENCY,Public Relations,https://www.fleishmanhillard.com,Vancouver,,Canada,Omnicom Group
RAPP,AGENCY,Customer Relationship Marketing,https://www.rapp.com,New York,NY,US,Omnicom Group
RAPP Chicago,AGENCY,Customer Relationship Marketing,https://www.rapp.com,Chicago,IL,US,Omnicom Group
RAPP Dallas,AGENCY,Customer Relationship Marketing,https://www.rapp.com,Dallas,TX,US,Omnicom Group
RAPP LA,AGENCY,Customer Relationship Marketing,https://www.rapp.com,Los Angeles,CA,US,Omnicom Group
RAPP London,AGENCY,Customer Relationship Marketing,https://www.rapp.com,London,,United Kingdom,Omnicom Group
RAPP NY,AGENCY,Customer Relationship Marketing,https://www.rapp.com,New York,NY,US,Omnicom Group
RAPP SF,AGENCY,Customer Relationship Marketing,https://www.rapp.com,San Francisco,CA,US,Omnicom Group
RAPP Toronto,AGENCY,Customer Relationship Marketing,https://www.rapp.com,Toronto,,Canada,Omnicom Group
TCA.tv,AGENCY,Video Production,https://www.tca.tv,New York,NY,US,Omnicom Group
TCA Chicago,AGENCY,Video Production,https://www.tca.tv,Chicago,IL,US,Omnicom Group
TCA Jacksonville,AGENCY,Video Production,https://www.tca.tv,Jacksonville,FL,US,Omnicom Group
TCA NY,AGENCY,Video Production,https://www.tca.tv,New York,NY,US,Omnicom Group
Touche!,AGENCY,Advertising & Marketing,https://www.touchecanada.com,Toronto,,Canada,Omnicom Group
Touche! Montreal,AGENCY,Advertising & Marketing,https://www.touchecanada.com,Montreal,,Canada,Omnicom Group
Touche! Toronto,AGENCY,Advertising & Marketing,https://www.touchecanada.com,Toronto,,Canada,Omnicom Group
THIRD EAR,AGENCY,Audio Marketing,https://www.thirdear.com,New York,NY,US,Omnicom Group
GS&P,AGENCY,Advertising & Marketing,https://www.gsandp.com,San Francisco,CA,US,Omnicom Group
GS&P NY,AGENCY,Advertising & Marketing,https://www.gsandp.com,New York,NY,US,Omnicom Group
GS&P SF,AGENCY,Advertising & Marketing,https://www.gsandp.com,San Francisco,CA,US,Omnicom Group
Abbott Mead Vickers BBDO,AGENCY,Advertising & Marketing,https://www.amvbbdo.com,London,,United Kingdom,Omnicom Group
Porter Novelli,AGENCY,Public Relations,https://www.porternovelli.com,New York,NY,US,Omnicom Group
Porter Novelli Atlanta,AGENCY,Public Relations,https://www.porternovelli.com,Atlanta,GA,US,Omnicom Group
Porter Novelli Boston,AGENCY,Public Relations,https://www.porternovelli.com,Boston,MA,US,Omnicom Group
Porter Novelli Chicago,AGENCY,Public Relations,https://www.porternovelli.com,Chicago,IL,US,Omnicom Group
Porter Novelli DC,AGENCY,Public Relations,https://www.porternovelli.com,Washington,DC,US,Omnicom Group
Porter Novelli LA,AGENCY,Public Relations,https://www.porternovelli.com,Los Angeles,CA,US,Omnicom Group
Porter Novelli London,AGENCY,Public Relations,https://www.porternovelli.com,London,,United Kingdom,Omnicom Group
Porter Novelli Montreal,AGENCY,Public Relations,https://www.porternovelli.com,Montreal,,Canada,Omnicom Group
Porter Novelli NY,AGENCY,Public Relations,https://www.porternovelli.com,New York,NY,US,Omnicom Group
Porter Novelli Seattle,AGENCY,Public Relations,https://www.porternovelli.com,Seattle,WA,US,Omnicom Group
Porter Novelli Toronto,AGENCY,Public Relations,https://www.porternovelli.com,Toronto,,Canada,Omnicom Group
Adam & Eve/DDB,AGENCY,Advertising & Marketing,https://www.adamandeveddb.com,London,,United Kingdom,Omnicom Group
Adam & Eve/DDB SF,AGENCY,Advertising & Marketing,https://www.adamandeveddb.com,San Francisco,CA,US,Omnicom Group
Adam&Eve/DDB NY,AGENCY,Advertising & Marketing,https://www.adamandeveddb.com,New York,NY,US,Omnicom Group
Adam&Eve/DDB UK,AGENCY,Advertising & Marketing,https://www.adamandeveddb.com,London,,United Kingdom,Omnicom Group
DDB Chicago,AGENCY,Advertising & Marketing,https://www.ddb.com,Chicago,IL,US,Omnicom Group
DDB LA,AGENCY,Advertising & Marketing,https://www.ddb.com,Los Angeles,CA,US,Omnicom Group
Spike DDB,AGENCY,Advertising & Marketing,https://www.ddb.com,New York,NY,US,Omnicom Group
Manning Gottlieb OMD,AGENCY,Media Planning & Buying,https://www.manninggottliebomd.com,London,,United Kingdom,Omnicom Group
The Integer Group,AGENCY,Shopper Marketing,https://www.integer.com,Denver,CO,US,Omnicom Group
Integer Atlanta,AGENCY,Shopper Marketing,https://www.integer.com,Atlanta,GA,US,Omnicom Group
Integer Bentonville,AGENCY,Shopper Marketing,https://www.integer.com,Bentonville,AR,US,Omnicom Group
Integer Chicago,AGENCY,Shopper Marketing,https://www.integer.com,Chicago,IL,US,Omnicom Group
Integer Dallas,AGENCY,Shopper Marketing,https://www.integer.com,Dallas,TX,US,Omnicom Group
Integer Denver,AGENCY,Shopper Marketing,https://www.integer.com,Denver,CO,US,Omnicom Group
Integer Des Moines,AGENCY,Shopper Marketing,https://www.integer.com,Des Moines,IA,US,Omnicom Group
Integer London,AGENCY,Shopper Marketing,https://www.integer.com,London,,United Kingdom,Omnicom Group
Integer Minneapolis,AGENCY,Shopper Marketing,https://www.integer.com,Minneapolis,MN,US,Omnicom Group
Integer NY,AGENCY,Shopper Marketing,https://www.integer.com,New York,NY,US,Omnicom Group
Juniper Park\TBWA,AGENCY,Advertising & Marketing,https://www.juniperparktbwa.com,Toronto,,Canada,Omnicom Group
The Marketing Arm,AGENCY,Experiential Marketing,https://www.themarketingarm.com,Dallas,TX,US,Omnicom Group
The Marketing Arm Chicago,AGENCY,Experiential Marketing,https://www.themarketingarm.com,Chicago,IL,US,Omnicom Group
The Marketing Arm Dallas,AGENCY,Experiential Marketing,https://www.themarketingarm.com,Dallas,TX,US,Omnicom Group
The Marketing Arm LA,AGENCY,Experiential Marketing,https://www.themarketingarm.com,Los Angeles,CA,US,Omnicom Group
The Marketing Arm London,AGENCY,Experiential Marketing,https://www.themarketingarm.com,London,,United Kingdom,Omnicom Group
The Marketing Arm NY,AGENCY,Experiential Marketing,https://www.themarketingarm.com,New York,NY,US,Omnicom Group
TracyLocke,AGENCY,Shopper Marketing,https://www.tracylocke.com,Dallas,TX,US,Omnicom Group
TracyLocke Bentonville,AGENCY,Shopper Marketing,https://www.tracylocke.com,Bentonville,AR,US,Omnicom Group
TracyLocke Chicago,AGENCY,Shopper Marketing,https://www.tracylocke.com,Chicago,IL,US,Omnicom Group
TracyLocke Cincinnati,AGENCY,Shopper Marketing,https://www.tracylocke.com,Cincinnati,OH,US,Omnicom Group
TracyLocke Dallas,AGENCY,Shopper Marketing,https://www.tracylocke.com,Dallas,TX,US,Omnicom Group
TracyLocke Denver,AGENCY,Shopper Marketing,https://www.tracylocke.com,Denver,CO,US,Omnicom Group
TracyLocke Minneapolis,AGENCY,Shopper Marketing,https://www.tracylocke.com,Minneapolis,MN,US,Omnicom Group
TracyLocke NY,AGENCY,Shopper Marketing,https://www.tracylocke.com,New York,NY,US,Omnicom Group
TracyLocke Seattle,AGENCY,Shopper Marketing,https://www.tracylocke.com,Seattle,WA,US,Omnicom Group
TracyLocke SF,AGENCY,Shopper Marketing,https://www.tracylocke.com,San Francisco,CA,US,Omnicom Group
TracyLocke Toronto,AGENCY,Shopper Marketing,https://www.tracylocke.com,Toronto,,Canada,Omnicom Group
TracyLocke Wilton,AGENCY,Shopper Marketing,https://www.tracylocke.com,Wilton,CT,US,Omnicom Group
TPN,AGENCY,Healthcare Marketing,https://www.tpnagency.com,New York,NY,US,Omnicom Group
TPN Austin,AGENCY,Healthcare Marketing,https://www.tpnagency.com,Austin,TX,US,Omnicom Group
TPN Bentonville,AGENCY,Healthcare Marketing,https://www.tpnagency.com,Bentonville,AR,US,Omnicom Group
TPN Chicago,AGENCY,Healthcare Marketing,https://www.tpnagency.com,Chicago,IL,US,Omnicom Group
TPN Dallas,AGENCY,Healthcare Marketing,https://www.tpnagency.com,Dallas,TX,US,Omnicom Group
TPN LA,AGENCY,Healthcare Marketing,https://www.tpnagency.com,Los Angeles,CA,US,Omnicom Group
TPN London,AGENCY,Healthcare Marketing,https://www.tpnagency.com,London,,United Kingdom,Omnicom Group
TPN NY,AGENCY,Healthcare Marketing,https://www.tpnagency.com,New York,NY,US,Omnicom Group
TPN SF,AGENCY,Healthcare Marketing,https://www.tpnagency.com,San Francisco,CA,US,Omnicom Group
Resolution Agency,AGENCY,Advertising & Marketing,https://www.resolutionagency.com,New York,NY,US,Omnicom Group
Resolution Agency Chicago,AGENCY,Advertising & Marketing,https://www.resolutionagency.com,Chicago,IL,US,Omnicom Group
Resolution Agency Dallas,AGENCY,Advertising & Marketing,https://www.resolutionagency.com,Dallas,TX,US,Omnicom Group
Resolution Agency LA,AGENCY,Advertising & Marketing,https://www.resolutionagency.com,Los Angeles,CA,US,Omnicom Group
Resolution Agency NY,AGENCY,Advertising & Marketing,https://www.resolutionagency.com,New York,NY,US,Omnicom Group
EnergyBBDO,AGENCY,Advertising & Marketing,https://www.energybbdo.com,Chicago,IL,US,Omnicom Group
Ptarmigan Media,AGENCY,Media Planning & Buying,https://www.ptarmiganmedia.com,New York,NY,US,Omnicom Group
Ptarmigan Media London,AGENCY,Media Planning & Buying,https://www.ptarmiganmedia.com,London,,United Kingdom,Omnicom Group
Ptarmigan Media NY,AGENCY,Media Planning & Buying,https://www.ptarmiganmedia.com,New York,NY,US,Omnicom Group
Anderson DDB,AGENCY,Advertising & Marketing,https://www.andersonddb.com,Montreal,,Canada,Omnicom Group
Anderson DDB Montreal,AGENCY,Advertising & Marketing,https://www.andersonddb.com,Montreal,,Canada,Omnicom Group
Anderson DDB Toronto,AGENCY,Advertising & Marketing,https://www.andersonddb.com,Toronto,,Canada,Omnicom Group
TBWA\Chiat\Day,AGENCY,Advertising & Marketing,https://www.tbwachiatday.com,Los Angeles,CA,US,Omnicom Group
TBWA\Chiat\Day Chicago,AGENCY,Advertising & Marketing,https://www.tbwachiatday.com,Chicago,IL,US,Omnicom Group
TBWA\Chiat\Day LA,AGENCY,Advertising & Marketing,https://www.tbwachiatday.com,Los Angeles,CA,US,Omnicom Group
TBWA\Chiat\Day Miami,AGENCY,Advertising & Marketing,https://www.tbwachiatday.com,Miami,FL,US,Omnicom Group
TBWA\Chiat\Day Nashville,AGENCY,Advertising & Marketing,https://www.tbwachiatday.com,Nashville,TN,US,Omnicom Group
TBWA\Chiat\Day NY,AGENCY,Advertising & Marketing,https://www.tbwachiatday.com,New York,NY,US,Omnicom Group
TBWA\WorldHealth,AGENCY,Healthcare Marketing,https://www.tbwaworldhealth.com,New York,NY,US,Omnicom Group
TBWA\Paling Walters,AGENCY,Healthcare Marketing,https://www.tbwapalingwalters.com,Wilmington,DE,US,Omnicom Group
TBWA\WorldHealth Chicago,AGENCY,Healthcare Marketing,https://www.tbwaworldhealth.com,Chicago,IL,US,Omnicom Group
TBWA\WorldHealth Irvine,AGENCY,Healthcare Marketing,https://www.tbwaworldhealth.com,Irvine,CA,US,Omnicom Group
TBWA\WorldHealth NY,AGENCY,Healthcare Marketing,https://www.tbwaworldhealth.com,New York,NY,US,Omnicom Group
TBWA\WorldHealth SF,AGENCY,Healthcare Marketing,https://www.tbwaworldhealth.com,San Francisco,CA,US,Omnicom Group
TBWA\WorldHealth UK,AGENCY,Healthcare Marketing,https://www.tbwaworldhealth.com,London,,United Kingdom,Omnicom Group
Wildtype,AGENCY,Advertising & Marketing,https://www.wildtype.com,New York,NY,US,Omnicom Group
GMMB,AGENCY,Advertising & Marketing,https://www.gmmb.com,Washington,DC,US,Omnicom Group
GMMB DC,AGENCY,Advertising & Marketing,https://www.gmmb.com,Washington,DC,US,Omnicom Group
GMMB NY,AGENCY,Advertising & Marketing,https://www.gmmb.com,New York,NY,US,Omnicom Group
GMMB Seattle,AGENCY,Advertising & Marketing,https://www.gmmb.com,Seattle,WA,US,Omnicom Group
GMMB SF,AGENCY,Advertising & Marketing,https://www.gmmb.com,San Francisco,CA,US,Omnicom Group
Organic Inc,AGENCY,Digital Marketing,https://www.organicinc.com,New York,NY,US,Omnicom Group
Organic Atlanta,AGENCY,Digital Marketing,https://www.organicinc.com,Atlanta,GA,US,Omnicom Group
Organic Cincinnati,AGENCY,Digital Marketing,https://www.organicinc.com,Cincinnati,OH,US,Omnicom Group
Organic Detroit,AGENCY,Digital Marketing,https://www.organicinc.com,Detroit,MI,US,Omnicom Group
Organic NY,AGENCY,Digital Marketing,https://www.organicinc.com,New York,NY,US,Omnicom Group
Organic SF,AGENCY,Digital Marketing,https://www.organicinc.com,San Francisco,CA,US,Omnicom Group
Agency 720,AGENCY,Sports Marketing,https://www.agency720.com,New York,NY,US,Omnicom Group
Agency 720 Danbury,AGENCY,Sports Marketing,https://www.agency720.com,Danbury,CT,US,Omnicom Group
Agency 720 Dallas,AGENCY,Sports Marketing,https://www.agency720.com,Dallas,TX,US,Omnicom Group
Agency 720 Chicago,AGENCY,Sports Marketing,https://www.agency720.com,Chicago,IL,US,Omnicom Group
Agency 720 LA,AGENCY,Sports Marketing,https://www.agency720.com,Los Angeles,CA,US,Omnicom Group
DDB Canada,AGENCY,Advertising & Marketing,https://www.ddb.ca,Toronto,,Canada,Omnicom Group
DDB Edmonton,AGENCY,Advertising & Marketing,https://www.ddb.ca,Edmonton,,Canada,Omnicom Group
DDB Montreal,AGENCY,Advertising & Marketing,https://www.ddb.ca,Montreal,,Canada,Omnicom Group
DDB Toronto,AGENCY,Advertising & Marketing,https://www.ddb.ca,Toronto,,Canada,Omnicom Group
DDB Vancouver,AGENCY,Advertising & Marketing,https://www.ddb.ca,Vancouver,,Canada,Omnicom Group
Doremus,AGENCY,Financial Marketing,https://www.doremus.com,New York,NY,US,Omnicom Group
Doremus London,AGENCY,Financial Marketing,https://www.doremus.com,London,,United Kingdom,Omnicom Group
Doremus NY,AGENCY,Financial Marketing,https://www.doremus.com,New York,NY,US,Omnicom Group
Doremus SF,AGENCY,Financial Marketing,https://www.doremus.com,San Francisco,CA,US,Omnicom Group
Ketchum Inc,AGENCY,Public Relations,https://www.ketchum.com,New York,NY,US,Omnicom Group
Ketchum Atlanta,AGENCY,Public Relations,https://www.ketchum.com,Atlanta,GA,US,Omnicom Group
Ketchum Chicago,AGENCY,Public Relations,https://www.ketchum.com,Chicago,IL,US,Omnicom Group
Ketchum Dallas,AGENCY,Public Relations,https://www.ketchum.com,Dallas,TX,US,Omnicom Group
Ketchum DC,AGENCY,Public Relations,https://www.ketchum.com,Washington,DC,US,Omnicom Group
Ketchum LA,AGENCY,Public Relations,https://www.ketchum.com,Los Angeles,CA,US,Omnicom Group
Ketchum London,AGENCY,Public Relations,https://www.ketchum.com,London,,United Kingdom,Omnicom Group
Ketchum NY,AGENCY,Public Relations,https://www.ketchum.com,New York,NY,US,Omnicom Group
Ketchum Pittsburgh,AGENCY,Public Relations,https://www.ketchum.com,Pittsburgh,PA,US,Omnicom Group
Ketchum Raleigh,AGENCY,Public Relations,https://www.ketchum.com,Raleigh,NC,US,Omnicom Group
Ketchum SF,AGENCY,Public Relations,https://www.ketchum.com,San Francisco,CA,US,Omnicom Group
Ketchum Toronto,AGENCY,Public Relations,https://www.ketchum.com,Toronto,,Canada,Omnicom Group
TBWA\Media Arts Lab,AGENCY,Advertising & Marketing,https://www.tbwamediaartslabs.com,Los Angeles,CA,US,Omnicom Group
TBWA\Media Arts Lab LA,AGENCY,Advertising & Marketing,https://www.tbwamediaartslabs.com,Los Angeles,CA,US,Omnicom Group
TBWA\Media Arts Lab London,AGENCY,Advertising & Marketing,https://www.tbwamediaartslabs.com,London,,United Kingdom,Omnicom Group
TBWA\Media Arts Lab Miami,AGENCY,Advertising & Marketing,https://www.tbwamediaartslabs.com,Miami,FL,US,Omnicom Group
TBWA\Media Arts Lab Toronto,AGENCY,Advertising & Marketing,https://www.tbwamediaartslabs.com,Toronto,,Canada,Omnicom Group
Patients & Purpose,AGENCY,Healthcare Marketing,https://www.patientsandpurpose.com,New York,NY,US,Omnicom Group
BBDO Canada,AGENCY,Advertising & Marketing,https://www.bbdo.ca,Toronto,,Canada,Omnicom Group
BBDO Montreal,AGENCY,Advertising & Marketing,https://www.bbdo.ca,Montreal,,Canada,Omnicom Group
BBDO Toronto,AGENCY,Advertising & Marketing,https://www.bbdo.ca,Toronto,,Canada,Omnicom Group
TBWA\Worldwide,AGENCY,Advertising & Marketing,https://www.tbwa.com,New York,NY,US,Omnicom Group
TBWA Hong Kong,AGENCY,Advertising & Marketing,https://www.tbwa.com,Hong Kong,,Hong Kong,Omnicom Group
TBWA Sydney,AGENCY,Advertising & Marketing,https://www.tbwa.com,Sydney,,Australia,Omnicom Group
TBWA\London,AGENCY,Advertising & Marketing,https://www.tbwa.com,London,,United Kingdom,Omnicom Group
TBWA\RAAD Dubai,AGENCY,Advertising & Marketing,https://www.tbwa.com,Dubai,,United Arab Emirates,Omnicom Group
DDB Remedy,AGENCY,Healthcare Marketing,https://www.ddbremedy.com,London,,United Kingdom,Omnicom Group
DDB Remedy UK,AGENCY,Healthcare Marketing,https://www.ddbremedy.com,London,,United Kingdom,Omnicom Group
fluent360,AGENCY,Customer Relationship Marketing,https://www.fluent360.com,New York,NY,US,Omnicom Group
fluent360 Chicago,AGENCY,Customer Relationship Marketing,https://www.fluent360.com,Chicago,IL,US,Omnicom Group
fluent360 Nashville,AGENCY,Customer Relationship Marketing,https://www.fluent360.com,Nashville,TN,US,Omnicom Group
fluent360 NY,AGENCY,Customer Relationship Marketing,https://www.fluent360.com,New York,NY,US,Omnicom Group
eg+ worldwide,AGENCY,Experiential Marketing,https://www.egplus.com,New York,NY,US,Omnicom Group
eg+ worldwide Chicago,AGENCY,Experiential Marketing,https://www.egplus.com,Chicago,IL,US,Omnicom Group
eg+ worldwide London,AGENCY,Experiential Marketing,https://www.egplus.com,London,,United Kingdom,Omnicom Group
eg+ worldwide NY,AGENCY,Experiential Marketing,https://www.egplus.com,New York,NY,US,Omnicom Group
KERN,AGENCY,Advertising & Marketing,https://www.kernagency.com,New York,NY,US,Omnicom Group
Omnicom Precision Marketing Group,AGENCY,Data & Analytics,https://www.opmg.com,New York,NY,US,Omnicom Group
DDB Germany,AGENCY,Advertising & Marketing,https://www.ddb.de,Berlin,,Germany,Omnicom Group
DDB Berlin,AGENCY,Advertising & Marketing,https://www.ddb.de,Berlin,,Germany,Omnicom Group
BRIGHT RED,AGENCY,Advertising & Marketing,https://www.brightred.com,New York,NY,US,Omnicom Group
One&All,AGENCY,Advertising & Marketing,https://www.oneandall.com,New York,NY,US,Omnicom Group
One & All Agency Atlanta,AGENCY,Advertising & Marketing,https://www.oneandall.com,Atlanta,GA,US,Omnicom Group
One & All Agency LA,AGENCY,Advertising & Marketing,https://www.oneandall.com,Los Angeles,CA,US,Omnicom Group
VOX Global,AGENCY,Public Relations,https://www.voxglobal.com,New York,NY,US,Omnicom Group
VOX Global Boston,AGENCY,Public Relations,https://www.voxglobal.com,Boston,MA,US,Omnicom Group
VOX Global Dallas,AGENCY,Public Relations,https://www.voxglobal.com,Dallas,TX,US,Omnicom Group
VOX Global DC,AGENCY,Public Relations,https://www.voxglobal.com,Washington,DC,US,Omnicom Group
VOX Global Indianapolis,AGENCY,Public Relations,https://www.voxglobal.com,Indianapolis,IN,US,Omnicom Group
VOX Global Nashville,AGENCY,Public Relations,https://www.voxglobal.com,Nashville,TN,US,Omnicom Group
VOX Global NY,AGENCY,Public Relations,https://www.voxglobal.com,New York,NY,US,Omnicom Group
VOX Global Portland,AGENCY,Public Relations,https://www.voxglobal.com,Portland,OR,US,Omnicom Group
VOX Global Raleigh,AGENCY,Public Relations,https://www.voxglobal.com,Raleigh,NC,US,Omnicom Group
Targetbase,AGENCY,Customer Relationship Marketing,https://www.targetbase.com,Dallas,TX,US,Omnicom Group
Targetbase Dallas,AGENCY,Customer Relationship Marketing,https://www.targetbase.com,Dallas,TX,US,Omnicom Group
Targetbase Greensboro,AGENCY,Customer Relationship Marketing,https://www.targetbase.com,Greensboro,NC,US,Omnicom Group
TrackDDB,AGENCY,Advertising & Marketing,https://www.trackddb.com,Toronto,,Canada,Omnicom Group
TrackDDB NY,AGENCY,Advertising & Marketing,https://www.trackddb.com,New York,NY,US,Omnicom Group
TrackDDB Toronto,AGENCY,Advertising & Marketing,https://www.trackddb.com,Toronto,,Canada,Omnicom Group
Biolumina,AGENCY,Healthcare Marketing,https://www.biolumina.com,New York,NY,US,Omnicom Group
Beanstalk,AGENCY,Brand Licensing,https://www.beanstalk.com,New York,NY,US,Omnicom Group
Beanstalk Miami,AGENCY,Brand Licensing,https://www.beanstalk.com,Miami,FL,US,Omnicom Group
Beanstalk NY,AGENCY,Brand Licensing,https://www.beanstalk.com,New York,NY,US,Omnicom Group
Science & Purpose,AGENCY,Advertising & Marketing,https://www.scienceandpurpose.com,New York,NY,US,Omnicom Group
DDB Health,AGENCY,Healthcare Marketing,https://www.ddbhealth.com,New York,NY,US,Omnicom Group
DDB Health NY,AGENCY,Healthcare Marketing,https://www.ddbhealth.com,New York,NY,US,Omnicom Group
DDB Health SF,AGENCY,Healthcare Marketing,https://www.ddbhealth.com,San Francisco,CA,US,Omnicom Group
Clemenger BBDO Melbourne,AGENCY,Advertising & Marketing,https://www.clemenger.com.au,Melbourne,,Australia,Omnicom Group
Colenso BBDO,AGENCY,Advertising & Marketing,https://www.colensob BDO.co.nz,Auckland,,New Zealand,Omnicom Group
Tribal Worldwide,AGENCY,Digital Marketing,https://www.tribalworldwide.com,New York,NY,US,Omnicom Group
TAM-TAM\TBWA,AGENCY,Advertising & Marketing,https://www.tamtamtbwa.com,Montreal,,Canada,Omnicom Group
Javelin,AGENCY,Sports Marketing,https://www.javelingroup.com,Dallas,TX,US,Omnicom Group
Javelin Marketing Dallas,AGENCY,Sports Marketing,https://www.javelingroup.com,Dallas,TX,US,Omnicom Group
Javelin Marketing Irving,AGENCY,Sports Marketing,https://www.javelingroup.com,Irving,TX,US,Omnicom Group
Javelin Marketing LA,AGENCY,Sports Marketing,https://www.javelingroup.com,Los Angeles,CA,US,Omnicom Group
Javelin Marketing NY,AGENCY,Sports Marketing,https://www.javelingroup.com,New York,NY,US,Omnicom Group
Javelin Marketing Seattle,AGENCY,Sports Marketing,https://www.javelingroup.com,Seattle,WA,US,Omnicom Group
CDM,AGENCY,Advertising & Marketing,https://www.cdm.com,New York,NY,US,Omnicom Group
CDM London,AGENCY,Advertising & Marketing,https://www.cdm.com,London,,United Kingdom,Omnicom Group
CDM Montreal,AGENCY,Advertising & Marketing,https://www.cdm.com,Montreal,,Canada,Omnicom Group
CDM NY,AGENCY,Advertising & Marketing,https://www.cdm.com,New York,NY,US,Omnicom Group
CDM Princeton,AGENCY,Advertising & Marketing,https://www.cdm.com,Princeton,NJ,US,Omnicom Group
High Road Communications,AGENCY,Public Relations,https://www.highroadpr.com,New York,NY,US,Omnicom Group
High Road LA,AGENCY,Public Relations,https://www.highroadpr.com,Los Angeles,CA,US,Omnicom Group
High Road Montreal,AGENCY,Public Relations,https://www.highroadpr.com,Montreal,,Canada,Omnicom Group
High Road NY,AGENCY,Public Relations,https://www.highroadpr.com,New York,NY,US,Omnicom Group
High Road Ottawa,AGENCY,Public Relations,https://www.highroadpr.com,Ottawa,,Canada,Omnicom Group
High Road Toronto,AGENCY,Public Relations,https://www.highroadpr.com,Toronto,,Canada,Omnicom Group
High Road Vancouver,AGENCY,Public Relations,https://www.highroadpr.com,Vancouver,,Canada,Omnicom Group
Cone Communications,AGENCY,Public Relations,https://www.conecommunications.com,Boston,MA,US,Omnicom Group
Cone Communications Boston,AGENCY,Public Relations,https://www.conecommunications.com,Boston,MA,US,Omnicom Group
Cone Communications NY,AGENCY,Public Relations,https://www.conecommunications.com,New York,NY,US,Omnicom Group
TogoRun,AGENCY,Experiential Marketing,https://www.togorun.com,New York,NY,US,Omnicom Group
TogoRun DC,AGENCY,Experiential Marketing,https://www.togorun.com,Washington,DC,US,Omnicom Group
TogoRun LA,AGENCY,Experiential Marketing,https://www.togorun.com,Los Angeles,CA,US,Omnicom Group
TogoRun London,AGENCY,Experiential Marketing,https://www.togorun.com,London,,United Kingdom,Omnicom Group
TogoRun NY,AGENCY,Experiential Marketing,https://www.togorun.com,New York,NY,US,Omnicom Group
MMG,AGENCY,Advertising & Marketing,https://www.mmgworldwide.com,Washington,DC,US,Omnicom Group
MMG DC,AGENCY,Advertising & Marketing,https://www.mmgworldwide.com,Washington,DC,US,Omnicom Group
MMG Essex,AGENCY,Advertising & Marketing,https://www.mmgworldwide.com,Essex,,United Kingdom,Omnicom Group
sparks & honey,AGENCY,Cultural Strategy,https://www.sparksandhoney.com,New York,NY,US,Omnicom Group
Rowland,AGENCY,Public Relations,https://www.rowlandpr.com,New York,NY,US,Omnicom Group
Mercury Public Affairs,AGENCY,Public Affairs,https://www.mercurypublicaffairs.com,Washington,DC,US,Omnicom Group
Gutenberg Global,AGENCY,Advertising & Marketing,https://www.gutenbergglobal.com,New York,NY,US,Omnicom Group
